nombre,apellidoP,apellidoM,correo,telefono,estado,calle,municipio,numero,cp,rfc,edad,salario,antiguedad,nss,curp,noPuntos,esParrillero,esMesero,esCajero,esTortillero,esRepartidor,fechaIngreso
Bent,Heitz,Holtaway,bholtaway1@friendfeed.com,1054146623,Zacatecas,Hazelcrest,Copainal,77620,62120,UJHB647830VRU,20,63021.68,32,9596470991,UBOG436919QJHHYUHN,24683,FALSE,TRUE,TRUE,FALSE,TRUE,1/16/2022
Cortie,Penning,McManamen,cmcmanamen3@twitpic.com,593339463,Guerrero,Butternut,Mixistln de la Reforma,44992,51131,BAMU639277DIV,18,31773.86,28,5275414044,,,TRUE,TRUE,FALSE,FALSE,TRUE,9/2/2021
Kristyn,Ince,Doak,kdoak5@mlb.com,503231148,Queretaro,Nobel,Mineral del Chico,869,28060,HUWT372388QIA,50,24688.04,7,5436288603,,,FALSE,TRUE,FALSE,FALSE,TRUE,3/3/2018
Sherry,Kite,Menhenitt,smenhenitt7@blogger.com,9657917382,Tlaxcala,Kennedy,Yutanduchi de Guerrero,64421,49681,IMMU424098HOT,30,76027.2,14,6000593991,,,TRUE,TRUE,TRUE,TRUE,TRUE,5/22/2021
Otto,Magor,Greest,ogreest8@instagram.com,7058127258,Queretaro,Bunting,Ixhuatln de Madero,6,98540,ZAJR727665KOO,53,98316.2,27,5174558333,,,TRUE,TRUE,TRUE,TRUE,FALSE,8/4/2021
Cookie,Rojas,Garbert,cgarbert9@state.tx.us,6822748352,Zacatecas,Utah,Nuevo Casas Grandes,4,2418,DRUX834171ZYS,2,5068.22,5,6968829586,,,FALSE,TRUE,FALSE,TRUE,FALSE,5/27/2019
Risa,Seedhouse,Bronger,rbrongerc@columbia.edu,5954107151,Guerrero,Summer Ridge,Nochistln de Meja,94,95020,KCGF697836MRZ,29,59580.69,34,7656994293,,,TRUE,TRUE,FALSE,TRUE,TRUE,7/4/2021
Pincus,Lind,Lonie,plonied@yale.edu,7988244329,Chihuahua,Dorton,Santiago Lalopa,8417,54915,JQKE425884QII,96,52397.83,15,9381142729,,,FALSE,TRUE,FALSE,FALSE,TRUE,11/11/2019
Maisie,Schmuhl,Bennoe,mbennoeh@printfriendly.com,6633359312,Veracruz de Ignacio de la Llave,Rowland,Rojas de Cuauhtmoc,67,39081,YKKA237956ZPI,5,40904.22,11,5336640891,,,TRUE,TRUE,TRUE,TRUE,FALSE,9/7/2021
Connor,Ever,Fannin,cfanninj@abc.net.au,5750466283,Yucatan,Miller,Tanquin de Escobedo,54517,74445,OKNT169132ZWS,26,62235.89,32,3388521700,PJAV098374EZOEZTZW,7431,TRUE,TRUE,TRUE,FALSE,TRUE,5/7/2020
Ellis,Habishaw,Huelin,ehuelinl@tinypic.com,4664691765,Coahuila de Zaragoza,Dryden,Huajicori,3708,95914,SENT795096PVZ,87,52196.73,32,6182366570,RONT049651AIFNOZKV,18155,FALSE,TRUE,FALSE,TRUE,TRUE,11/13/2018
Beatrix,Mengue,Jewel,bjewelm@chronoengine.com,4559080151,Michoac?要,Namekagon,Bacalar,5809,63004,FZES627298BNF,50,79129.43,36,1845906864,,,FALSE,TRUE,TRUE,TRUE,TRUE,2/3/2022
Carin,Hurnell,Reimer,creimero@prlog.org,4857632164,San Luis Potosi,Elgar,Mineral de la Reforma,58,18655,GSJM437935LLM,98,99765.75,19,4153260958,,,TRUE,TRUE,FALSE,FALSE,FALSE,11/27/2020
Zelda,Isacq,Buckthorp,zbuckthorp13@microsoft.com,3654106370,M??xico,Parkside,San Pedro Ixtlahuaca,5,17569,NVEO872794ARQ,31,36767.32,5,6445419642,,,FALSE,TRUE,FALSE,FALSE,FALSE,12/24/2019
Kathleen,Bartke,Riepl,kriepl14@google.it,9335273094,Sinaloa,Columbus,Ixpantepec Nieves,215,2913,QUIW916478DER,46,16906.4,20,4312975146,,,FALSE,TRUE,TRUE,TRUE,TRUE,11/2/2020
Elysee,Jodlowski,Tetther,etetther16@bigcartel.com,991640359,Baja California,Arizona,Ayotln,2,93618,ALTF341480WIM,51,79777.23,1,4192902151,,,FALSE,TRUE,TRUE,FALSE,TRUE,2/19/2022
Ally,Voce,Girauld,agirauld1a@livejournal.com,9103994306,Jalisco,La Follette,Santa Mara Sola,2447,33463,ECZY278458PJJ,100,48027.35,17,4674530257,,,FALSE,TRUE,FALSE,FALSE,TRUE,3/22/2020
Smitty,Deners,Wurst,swurst1h@hibu.com,2469974504,Oaxaca,Graedel,San Julin,0,97167,SLOM595927XOI,66,14324.04,17,9242147301,,,FALSE,TRUE,FALSE,FALSE,TRUE,3/3/2018
Markus,Heinle,Cleobury,mcleobury1j@purevolume.com,3290322056,Michoac?要,Mariners Cove,Tlanepantla,9590,22859,RZFI817165QNR,41,35761.09,29,364464572,MCDX168106TENIKMZB,40220,TRUE,TRUE,FALSE,FALSE,FALSE,2/13/2020
Wynne,Caslane,Navarijo,wnavarijo1k@blogs.com,4842793256,M??xico,Dottie,La Huacana,40,99671,DVIT795259OIY,22,86269.57,25,461367448,ZJQQ916144YJSIBNXV,12328,TRUE,TRUE,TRUE,FALSE,TRUE,8/25/2018
Norean,Willshear,Massel,nmassel1l@artisteer.com,2292892740,Chiapas,Ridgeway,Santiago Tamazola,687,29239,NBWM712492VTK,18,58397,25,9056211447,,,FALSE,TRUE,TRUE,FALSE,TRUE,1/8/2018
Sybila,Croy,Turvey,sturvey1m@liveinternet.ru,9043769348,Zacatecas,Buhler,San Juan Atepec,6273,98751,AGHL540541AIF,78,3035.16,28,3728677753,,,TRUE,TRUE,TRUE,TRUE,TRUE,8/27/2021
Brendon,Doolan,Brosi,bbrosi1o@vkontakte.ru,772320137,San Luis Potosi,Barby,Ajuchitln del Progreso,72709,31537,NWFT915681DTX,7,52823.91,18,3878245454,POVN317642RXRFFWQY,13515,TRUE,TRUE,TRUE,TRUE,TRUE,2/13/2021
Ediva,Clout,Brunstan,ebrunstan1r@ocn.ne.jp,9111133746,Morelos,Fuller,San Miguel Piedras,61078,79486,BFYF004042HFJ,42,18968.24,9,4981128769,LUVZ885376CGOKZCNP,27219,TRUE,TRUE,TRUE,FALSE,FALSE,11/10/2020
Clifford,Augar,Dell Casa,cdellcasa1s@fda.gov,8987327505,Colima,Rockefeller,Zumpahuacn,3039,68133,VSXE753482HNF,55,65069.51,5,7785478794,,,TRUE,TRUE,FALSE,FALSE,FALSE,7/25/2021
Mariejeanne,Gunnell,Fassum,mfassum1w@360.cn,8019961414,Guanajuato,Welch,San Miguel Mixtepec,649,82723,SRIX558101SXW,34,51510.57,28,5658889310,,,FALSE,TRUE,FALSE,FALSE,FALSE,12/21/2018
Orsola,Pioli,Rawsen,orawsen1z@paypal.com,2749925341,San Luis Potosi,Merchant,Santa Catalina Quier,3422,76757,DMXD294712LSA,87,24932.21,31,1317684495,,,FALSE,TRUE,FALSE,TRUE,TRUE,2/18/2018
Neale,Iapico,Caillou,ncaillou24@ucla.edu,1322709726,Michoac?要,Sachs,Santiago Matatln,28,98823,XIZB828185IFQ,67,9022.42,31,6697561930,OHBM046545AEELTUZH,15299,TRUE,TRUE,TRUE,TRUE,FALSE,2/6/2021
Calli,Holgan,Fishbie,cfishbie2b@yahoo.co.jp,915113251,Hidalgo,Roxbury,Charcas,9,27203,KMLQ620179NRZ,70,40337.65,9,58828733,ANOA594550PSFTMKWI,45462,FALSE,TRUE,TRUE,TRUE,FALSE,7/9/2019
Ricca,Vevers,Peet,rpeet2g@usatoday.com,3840050487,Ciudad de M??xico,Fair Oaks,San Juan Juquila Vijanos,9,29071,NWUT342901GMT,87,76509.72,8,922245173,RYKE095231WVODOHRP,5330,FALSE,TRUE,FALSE,FALSE,FALSE,8/10/2019
Nyssa,Greenfield,Sturt,nsturt2m@eepurl.com,162690249,Guanajuato,Hauk,Sayula de Alemn,81,89597,LIWV603899GJH,84,52326.42,5,7834744737,HZYA009413DMDWOKCL,26158,TRUE,TRUE,FALSE,TRUE,FALSE,10/22/2021
Abbe,Bucknall,Kenright,akenright2o@pen.io,6960650538,Campeche,Chinook,Tecali de Herrera,5752,79328,TWEU008316AOL,84,5511.64,5,3677730722,,,FALSE,TRUE,FALSE,FALSE,FALSE,10/17/2018
Pearce,Neiland,Ennals,pennals2r@webs.com,1128920398,Nayarit,Claremont,Tekax,7,14293,ITZR498265TPK,77,42462.38,15,6674775371,IAUW834645FVXTZCJQ,9686,TRUE,TRUE,FALSE,TRUE,TRUE,7/10/2018
Charlene,Castaignet,Potier,cpotier2z@mashable.com,7180581730,Zacatecas,Pawling,Pichucalco,24714,17825,ZQAQ713902AEO,71,51712.93,6,5524455565,SHZX260668PMIQFAOK,31586,TRUE,TRUE,FALSE,FALSE,FALSE,3/15/2018
Pippy,Coad,Hugin,phugin32@geocities.com,1680232390,Durango,Grim,Magdalena Ocotln,3925,44146,VGLZ951853AFB,72,57876.39,33,9797688484,LXPE785230IUCYMBLU,12398,TRUE,TRUE,FALSE,FALSE,FALSE,2/14/2019
Ferrel,Awmack,Moorhead,fmoorhead33@photobucket.com,6443914229,Ciudad de M??xico,Westerfield,Santa Mara Tecomavaca,992,22675,TGFM927759XWE,41,19491.84,21,5052826052,QLFN564853QVWQMHPJ,43282,FALSE,TRUE,FALSE,TRUE,TRUE,10/16/2020
Hadlee,McAnulty,Letessier,hletessier3c@alexa.com,6444999366,Campeche,Huxley,Santiago Amoltepec,5,5947,CRYK422547LFX,74,76273.98,38,6309573636,CMPB054110DUNPVYBG,2934,TRUE,TRUE,FALSE,TRUE,TRUE,6/13/2019
Dianemarie,Rozenzweig,Brea,dbrea3e@mail.ru,5823699856,Zacatecas,Butternut,Trinidad Zaachila,13,96304,JYKP679741EFY,22,7780.6,1,9285986289,MYEN708375FODHTJYT,44183,TRUE,TRUE,TRUE,TRUE,FALSE,10/15/2021
Bruno,Imore,Choffin,bchoffin3j@gov.uk,6337430993,Nayarit,Darwin,Tepecoacuilco de Trujano,52,77968,COCS959623AYT,41,80549.56,4,7400602924,BOZJ818077BXCZVUEH,341,TRUE,TRUE,FALSE,TRUE,FALSE,1/30/2021
Carissa,Clavey,Terron,cterron3m@techcrunch.com,2042297676,Guanajuato,Gina,Ixtaczoquitln,57756,69415,RRUE885337AVZ,11,35110.8,14,3249578350,,,TRUE,TRUE,TRUE,TRUE,TRUE,7/13/2018
Lilas,Betjes,Jandera,ljandera48@cpanel.net,7822732204,Tamaulipas,Manley,Tepeyahualco de Cuauhtmoc,6,45485,BAJW665287FQL,78,79858.68,38,7534139960,,,TRUE,TRUE,TRUE,TRUE,TRUE,8/21/2021
Olly,Melby,Aylmer,oaylmer4b@nationalgeographic.com,1593928689,Durango,Ridgeview,Jonotla,1745,15928,PJBF072004AFM,11,44334.79,23,3983716966,TUWE143071DUJXTTAE,22114,TRUE,TRUE,FALSE,FALSE,TRUE,10/8/2020
Thacher,Lambdean,McNee,tmcnee4d@shop-pro.jp,8970593631,Quintana Roo,Pleasure,Santa Catarina Tlaltempan,85246,10843,RFHF748733HIE,54,73057.94,40,7944591837,,,TRUE,TRUE,TRUE,TRUE,FALSE,7/14/2018
Phyllida,Pietruschka,Malden,pmalden4f@vistaprint.com,9345067198,Morelos,Scott,San Juan Yucuita,4473,90172,QAEW895606LFW,31,3164.46,19,4367355292,,,TRUE,TRUE,FALSE,FALSE,FALSE,4/26/2019
Aili,Gasson,Hebron,ahebron4o@ehow.com,8844183830,Tabasco,Ridgeview,Tarmbaro,9852,31141,TQIO340080IUH,25,78041.96,24,7013504265,,,FALSE,TRUE,TRUE,TRUE,TRUE,7/22/2018
Omero,Spaxman,McGlone,omcglone4z@paypal.com,2572177058,Sonora,Clemons,Tlacoapa,65,20257,STPI171432SYC,88,19686.43,24,5344349440,CAVN615896LCJJCYKQ,7492,FALSE,TRUE,FALSE,TRUE,FALSE,4/28/2022
Cello,Addess,Hentzer,chentzer50@miitbeian.gov.cn,4099734845,Zacatecas,Holy Cross,Santa Ana Yareni,18,81657,JLRX220983CCT,14,82005.99,31,3352196178,,,TRUE,TRUE,FALSE,TRUE,FALSE,12/31/2019
Ephrem,Baselio,Grzegorzewicz,egrzegorzewicz54@1und1.de,5016253446,Baja California Sur,Harbort,Almoloya,738,68256,MLDY205315VBN,21,25523.17,18,1795967635,,,FALSE,TRUE,TRUE,FALSE,TRUE,11/2/2019
Carmen,Sabathe,Briiginshaw,cbriiginshaw55@reference.com,1060887854,San Luis Potosi,Pankratz,Ramos Arizpe,98,29101,HDTA047386DIY,86,24905.71,23,1486906362,,,TRUE,TRUE,TRUE,TRUE,TRUE,3/10/2021
Sheelagh,Demougeot,Clowney,sclowney5j@homestead.com,6317236198,Durango,Evergreen,Huaniqueo,48,45989,FSLY765163QGZ,83,90545.15,10,608379712,,,TRUE,TRUE,TRUE,FALSE,TRUE,6/25/2020
Boyce,Blaylock,Gionettitti,bgionettitti5m@reuters.com,5420858180,Colima,Loftsgordon,Cosautln de Carvajal,899,71721,JAWA117958NTZ,15,77913.12,16,5315545162,EAOA731935UQQZAYQD,10051,TRUE,TRUE,TRUE,TRUE,TRUE,7/9/2020
Tiphanie,Fosdyke,Treby,ttreby5n@nytimes.com,8159583200,Sinaloa,Colorado,Teziutln,5402,25090,LMGA899637QFW,13,28341.25,27,2498352494,XPCJ435486ZFMVDEJV,32024,FALSE,TRUE,FALSE,FALSE,FALSE,3/10/2021
Jillian,Swire,Cardenas,jcardenas5p@smh.com.au,7200913298,M??xico,Derek,Tulcingo,1236,41722,THDG676626MMB,80,97489.23,17,982151774,,,FALSE,TRUE,FALSE,TRUE,FALSE,2/29/2020
Bellina,Stryde,McBrearty,bmcbrearty5s@drupal.org,511147303,Chihuahua,Ridgeway,San Andrs Huaxpaltepec,79,26006,LJSC060019LTD,10,79530.75,35,579542715,WXKN802664OFLSAWLV,35959,FALSE,TRUE,TRUE,TRUE,TRUE,7/1/2020
Horatio,Roddan,Surmeyer,hsurmeyer5u@time.com,7768866881,Chihuahua,Canary,Cuauhtmoc,403,19789,QEWD108078HXM,83,33072.79,9,6883481046,,,TRUE,TRUE,TRUE,FALSE,FALSE,1/16/2021
Roseanna,Berrill,Delahunty,rdelahunty5v@oracle.com,9350626333,Guerrero,Golden Leaf,Coxquihui,982,64401,KAUR689714WFB,69,15423.87,13,6349571874,WVPH812134ROZLZGST,21075,TRUE,TRUE,FALSE,TRUE,FALSE,1/24/2019
Randy,Cortese,Bruff,rbruff5w@mozilla.org,1959178471,Nuevo Leon,Heffernan,Santo Domingo Tonal,30891,57021,VRGH350528MLU,4,91329.69,10,1745299078,,,TRUE,TRUE,TRUE,FALSE,TRUE,4/13/2020
Fredia,Farington,Seint,fseint62@reference.com,1994507365,Morelos,Darwin,Tempoal,1,93264,OWHF345868JEV,92,18681.38,19,8771927364,,,TRUE,TRUE,TRUE,FALSE,FALSE,8/9/2019
Danya,Eltun,Bacop,dbacop69@issuu.com,8453977396,Veracruz de Ignacio de la Llave,Waxwing,Irapuato,92813,31981,ZCCB774847CAW,53,76257.88,20,7059540508,,,TRUE,TRUE,TRUE,TRUE,TRUE,5/3/2020
Stephine,Ricardou,Bortol,sbortol6c@pen.io,8779660416,Durango,Thompson,Atenango del Ro,55518,38756,TUPO787787BTP,15,88775.85,19,6488305570,,,TRUE,TRUE,TRUE,FALSE,TRUE,1/12/2021
Casar,Mereweather,Laydel,claydel6g@army.mil,3664985071,Morelos,Butternut,Cazones de Herrera,4228,25336,PVMO301855AIH,70,24778.97,24,1142226197,,,TRUE,TRUE,TRUE,TRUE,TRUE,12/17/2018
Kippie,Kiddie,Fidgin,kfidgin6n@nhs.uk,5168181827,Tabasco,Tennessee,Tingindn,1,37769,GUWC902498DGQ,77,84388.3,18,5137756076,,,TRUE,TRUE,FALSE,FALSE,TRUE,7/4/2018
Averill,Boyse,Paladini,apaladini6r@tuttocitta.it,4330084606,Zacatecas,Vidon,Ocozocoautla de Espinosa,0,18221,ZTNV121990EOR,56,20752.09,13,1844633531,WMNO636472WPIZLGLA,11437,FALSE,TRUE,TRUE,TRUE,FALSE,9/28/2020
Frasco,Bremeyer,Wheatman,fwheatman6x@virginia.edu,8827831792,Michoac?要,Meadow Vale,General Plutarco Elas Calles,6,26474,GKPN308662ZGO,66,68073.96,11,9379375593,GTQT434685ORJYYUGI,24978,FALSE,TRUE,FALSE,TRUE,FALSE,1/2/2019
Bink,Sarsons,Bromet,bbromet70@cisco.com,2295906117,Nayarit,Truax,San Juan Lachigalla,63,77040,OHJY434375OTB,22,18918.19,3,9149260512,,,TRUE,TRUE,FALSE,TRUE,FALSE,4/26/2018
Gifford,Plain,Ingon,gingon75@list-manage.com,961726444,Veracruz de Ignacio de la Llave,Upham,Santiago Chazumba,2020,6523,QITO247893DIW,47,24381.08,31,14992607,,,FALSE,TRUE,FALSE,TRUE,TRUE,2/12/2019
Dag,Garvill,Stoacley,dstoacley78@netlog.com,4074162127,M??xico,Stuart,Tepexco,5,88558,GCTT831569ZUZ,24,74809.31,32,6726908358,BURX992467DWKZOJZG,15059,TRUE,TRUE,TRUE,TRUE,TRUE,8/14/2020
Jordon,Sweetland,Snowding,jsnowding7a@wufoo.com,1311678478,Veracruz de Ignacio de la Llave,Elgar,Zapotitln Tablas,8977,48412,AHTR657695HIK,43,56884.62,15,2142081791,,,TRUE,TRUE,FALSE,TRUE,TRUE,2/9/2019
Dorise,Musso,Marklin,dmarklin7g@prweb.com,2487518155,Tamaulipas,Crowley,Atizapn de Zaragoza,785,61699,TZKM744313QMG,56,51240.19,27,9938069961,,,FALSE,TRUE,FALSE,TRUE,FALSE,10/31/2019
Brynn,Gomez,Lorence,blorence7h@tinypic.com,6740667111,Coahuila de Zaragoza,Vahlen,Santiago Huajolotitln,8,90760,LMTI181050DEY,90,93407.69,22,1835878974,,,TRUE,TRUE,FALSE,FALSE,TRUE,2/12/2021
Berthe,Christopherson,Peggram,bpeggram7i@marketwatch.com,4642304687,Coahuila de Zaragoza,Bartelt,Mayapn,95017,57411,TSKO873650CRL,85,66624.22,7,340484708,,,TRUE,TRUE,FALSE,FALSE,TRUE,12/5/2020
Cele,Cubbino,Farrant,cfarrant7p@tumblr.com,2678136754,Guanajuato,Crest Line,San Juan Bautista Cuicatln,581,86596,GLLM781590TYZ,90,58875.77,40,5037022705,WVKH329697QTKWHUPS,40433,FALSE,TRUE,FALSE,TRUE,TRUE,4/24/2018
Shandee,Cormode,Ruckledge,sruckledge7u@mozilla.org,8821911290,Baja California Sur,Green Ridge,San Andrs Ixtlahuaca,758,71978,QFUS473091VAW,21,75534.48,15,3181486083,FUND118466YAYCPQLZ,47420,FALSE,TRUE,TRUE,FALSE,TRUE,4/23/2021
Wald,Thomasen,Rivenzon,wrivenzon7w@usatoday.com,6022431107,Chiapas,Fordem,Ocampo,53,68756,ELUR400444PHO,61,57215.04,15,4100369328,,,FALSE,TRUE,TRUE,FALSE,TRUE,11/9/2020
Truda,Reubel,Chomicz,tchomicz7y@tiny.cc,8147520439,Sonora,Annamark,San Francisco del Oro,6187,87499,HDFM570687PKB,71,8808.53,19,737622729,PDDD767606SLXKRHYG,39239,TRUE,TRUE,TRUE,FALSE,TRUE,11/11/2018
Leland,Gabriely,Sausman,lsausman7z@dot.gov,7764602904,Nayarit,Harbort,Dolores Hidalgo Cuna de la Independencia Nacional,4035,69225,DBDS183873WJK,26,71949.5,21,6863226128,GYJO020957RUGNILBP,35649,FALSE,TRUE,TRUE,TRUE,FALSE,10/16/2019
Carolina,Rodda,Viveash,cviveash82@odnoklassniki.ru,2818232975,San Luis Potosi,Waxwing,Huitzuco de los Figueroa,857,43587,YJIW679501SOI,44,84266.75,32,6057157552,GTZI787616GEDTRSTT,47715,TRUE,TRUE,FALSE,FALSE,FALSE,4/19/2019
Egan,Appleton,Farron,efarron84@facebook.com,6453262744,Quintana Roo,Bellgrove,Totolapa,6041,81534,QLKH833186AIK,99,60022.96,24,8888101894,,,FALSE,TRUE,FALSE,FALSE,FALSE,8/2/2020
Rickard,Ponter,Tibbles,rtibbles86@alibaba.com,2272574217,Chihuahua,Loftsgordon,Miguel Hidalgo,2,79298,BREP440099LEX,64,8215.12,36,5039682266,,,TRUE,TRUE,TRUE,TRUE,TRUE,12/25/2018
Orran,Springall,Samwaye,osamwaye8a@marriott.com,9075653011,Chiapas,Vernon,Arroyo Seco,711,57415,UPDX961431AEE,80,10756.01,5,8913875365,,,TRUE,TRUE,FALSE,FALSE,TRUE,10/25/2020
