idPersona,esEmpleado,esCliente,esProveedor,idSucursal,nombre,apellidoP,apellidoM,correo,telefono,estado,calle,municipio,numero,cp,rfc,edad,salario,antiguedad,nss,curp,noPuntos,esParrillero,esMesero,esCajero,esTortillero,esRepartidor,esTaquero,fechaIngreso
1332119756,True,False,False,24,Marley,Martell,McBryde,mmcbryde0@prnewswire.com,4516630782,México,Holy Cross,Altamirano,8,66020,SJCF823713PSM,57,22175.68,26,1397515564,,,False,False,False,False,True,False,2021-10-23
6063150911,True,True,False,36,Kelly,Larham,Baverstock,kbaverstock1@slate.com,6330576539,Nuevo Leon,Talisman,Maxcan,21,45100,YNOF558205RVS,47,13377.13,28,338317912,KGJJ019881RIRKPDDA,2666,True,False,False,False,False,True,2020-04-12
4448788363,True,True,False,40,Georgina,Friett,Wasylkiewicz,gwasylkiewicz2@google.ca,4359872085,Sonora,Pierstorff,Santa Ana Ateixtlahuaca,98857,63240,CETL446029AVN,25,1185.12,6,2872344837,BOSS651907KIHPMMUV,4813,False,False,False,False,False,True,2018-09-26
4685253514,False,True,True,,Carlin,Quant,Robus,crobus3@washingtonpost.com,9289850790,Michoacán,Reindahl,Yecuatla,18682,32810,ATAF483968VNQ,,,,,DGRD430774VZGZAGVD,3151,False,False,False,False,False,False,
8170158101,False,False,True,,Leo,Gandley,Dallicoat,ldallicoat4@mediafire.com,691332791,Queretaro,Cody,San Felipe Tepatln,45,10140,YAGZ124002FEU,,,,,,,False,False,False,False,False,False,
3270748967,True,True,False,38,Inness,Filkov,Tousey,itousey5@ycombinator.com,4863075202,Baja California,Vera,Tlayacapan,56,22860,BCDM757015OAZ,41,41246.5,2,5173250028,QFAR220421ZERMUMEV,2132,False,False,False,False,False,True,2021-09-25
3277409555,True,True,False,28,Sonnnie,Dymock,Shale,sshale6@illinois.edu,8511418035,Veracruz de Ignacio de la Llave,Mockingbird,San Jernimo Tlacochahuaya,384,9700,QSIP769739DUF,53,16666.6,28,3210767961,TEVL662434QOEGDCRB,919,False,False,False,True,False,False,2018-09-07
4640330076,True,False,False,78,Zacharia,Comino,De la Perrelle,zdelaperrelle7@vk.com,3688002047,Baja California,Ridgeway,Urique,99583,43630,ZTXD255712ONU,46,7954.19,3,5738536322,,,False,False,False,True,False,False,2018-06-02
3591906541,True,False,False,30,Inge,Blethin,Late,ilate8@sohu.com,5898428639,Baja California Sur,Cardinal,San Dionisio Ocotln,4593,840,FWGN656182AEA,33,16762,14,6233235345,,,False,False,True,False,False,True,2019-12-29
4740409422,True,False,False,58,Shadow,Hulke,Spores,sspores9@bluehost.com,2205014554,Jalisco,Troy,Mama,20,63560,RDQK465951YDF,33,39582.92,17,8143839346,,,False,False,False,True,False,True,2022-01-09
9210122320,False,True,True,,Leonelle,Archell,Feronet,lferoneta@aboutads.info,9136986583,Chihuahua,Gerald,Huamantla,3,57570,SPRA969115VFU,,,,,IFWJ492139VWPDLJWG,3259,False,False,False,False,False,False,
6116737685,True,False,False,60,Theo,Medlen,Clive,tcliveb@google.cn,8638353248,Aguascalientes,Karstens,Tarmbaro,73840,1140,EYQJ958334FVR,21,19260.98,39,9783485400,,,False,False,False,False,True,True,2021-10-25
8584544755,False,True,False,,Gaby,Swain,Elener,gelenerc@zdnet.com,934874302,Oaxaca,Derek,Ro Blanco,41,11430,MWWK560777ZZB,,,,,NFRI337371YNTLNAIB,3840,False,False,False,False,False,False,
2260267619,False,False,True,,Wilhelm,Hollow,Bolderoe,wbolderoed@mashable.com,8503936441,Guanajuato,Village Green,Ahualulco de Mercado,505,27680,KCDD982052DKE,,,,,,,False,False,False,False,False,False,
7084676391,False,False,True,,Alair,Sconce,Gaytor,agaytore@fc2.com,6399756980,Ciudad de México,Arizona,Domingo Arenas,4,65360,HHMI722859ZHE,,,,,,,False,False,False,False,False,False,
578430369,False,True,False,,Gualterio,Jelphs,Anney,ganneyf@hugedomains.com,9970430177,Ciudad de México,Homewood,Amacuzac,1,56330,GYIY113654UEV,,,,,AQWA203629ETBRKMVI,4312,False,False,False,False,False,False,
4569441766,False,True,False,,Karoly,Nunnerley,Leadbitter,kleadbitterg@dmoz.org,972523547,Colima,Emmet,Santa Mara Tataltepec,63242,73290,QIFZ363877ZRN,,,,,PCNH837784FJYXDVMY,3930,False,False,False,False,False,False,
3373745138,False,False,True,,Joseito,Brierley,Kryzhov,jkryzhovh@macromedia.com,7891710454,Quintana Roo,Caliangt,San Andrs Duraznal,41,53450,TQLD562258OYH,,,,,,,False,False,False,False,False,False,
7977993276,False,False,True,,Kendall,Daintry,Vasyuchov,kvasyuchovi@php.net,1547072331,Durango,Dryden,Jopala,17,90430,PZSJ486847NHZ,,,,,,,False,False,False,False,False,False,
5490309280,True,False,False,45,Hedvige,Bouttell,Felton,hfeltonj@goodreads.com,5759235357,Veracruz de Ignacio de la Llave,Crest Line,Mococh,616,52450,NZLX220902GBJ,68,36325.89,37,1246802948,,,False,False,True,False,False,False,2019-02-28
8945224079,True,False,False,41,Dill,Urion,Goscomb,dgoscombk@illinois.edu,6933870597,Yucatan,Mallory,Santa Mara Chimalapa,8,15660,KEHD012345ALY,48,41165.51,10,7300518037,,,False,False,True,False,False,False,2021-11-02
7798302957,False,True,True,,Helena,Lecky,Vogel,hvogell@marketwatch.com,2546612826,Sinaloa,Del Sol,Camargo,769,310,LNAX825519OAL,,,,,QBHP080663FQFHGYEU,985,False,False,False,False,False,False,
9208531485,True,True,False,29,Mag,Mullins,Brunstan,mbrunstanm@360.cn,4150614588,Quintana Roo,Lake View,San Miguel Peras,0,97360,CEJV512499KWJ,69,21517.34,19,3557674018,DDQT355584UAQYBWJP,4418,False,False,False,False,False,True,2018-07-18
6126008299,False,False,True,,Happy,Storres,De Mattia,hdemattian@cpanel.net,726146402,Tlaxcala,Paget,Xilitla,3894,55760,XRKB979773GPQ,,,,,,,False,False,False,False,False,False,
1851258354,False,False,True,,Pierson,Stanmer,Whife,pwhifeo@goodreads.com,2850278675,Tabasco,Division,General Bravo,93,76850,XPAC006440UDQ,,,,,,,False,False,False,False,False,False,
7726350236,False,False,True,,Stella,McKeefry,Ellacott,sellacottp@flavors.me,3343773744,Tabasco,Briar Crest,Atlixco,3772,87480,VFXA774480BTD,,,,,,,False,False,False,False,False,False,
8193630594,True,True,False,64,Carly,Laye,Ilyunin,cilyuninq@mayoclinic.com,5966608270,Coahuila de Zaragoza,Westend,Canelas,338,87220,HMKG941144ODQ,58,31960.54,15,6773894430,OWTD487946UZLUNGXB,1191,True,False,False,False,False,True,2021-04-29
7946191977,False,True,True,,Jelene,Holdren,Bande,jbander@sitemeter.com,6728764151,Morelos,Gateway,Zozocolco de Hidalgo,535,34710,OWZL960321GJW,,,,,YGEA137153RAMAKSHG,1942,False,False,False,False,False,False,
2610364627,False,False,True,,Odette,Zorer,Reuben,oreubens@arizona.edu,578273756,Tamaulipas,Goodland,Saltabarranca,45799,53350,XSXN549093GQM,,,,,,,False,False,False,False,False,False,
7666518894,True,True,False,20,Abelard,Hansbury,Blick,ablickt@imageshack.us,7377367698,Guerrero,Huxley,Ocotepec,6366,38100,CNXU181538EJU,54,24468.74,2,4591923078,TPKA357632CJTJZLSA,4367,False,True,False,False,False,False,2018-02-28
7055707031,False,True,True,,Codie,Etteridge,Gori,cgoriu@latimes.com,6225777252,Michoacán,Grayhawk,"Heroica Villa Tezoatln de Segura y Luna, Cuna de la Independencia de Oaxaca",453,49000,APAL226471YZY,,,,,JYPV133633SFYVGWMJ,4859,False,False,False,False,False,False,
2669740263,True,False,False,34,Adair,Kingsworth,Sture,asturev@pagesperso-orange.fr,9982685743,Nuevo Leon,Golf,Santa Luca Ocotln,408,27430,BSLO250499LIZ,54,15335.21,40,8231569513,,,False,True,False,False,False,False,2021-12-01
9769656351,True,False,False,96,Aldo,Spottiswoode,Dunn,adunnw@de.vu,9487137397,Queretaro,Roth,Tenosique,33890,95200,YPSK818690VSK,43,16067.51,21,452284978,,,False,False,False,False,True,True,2022-03-23
4954683735,False,False,True,,Georgeanne,Coburn,Chippin,gchippinx@plala.or.jp,771309160,México,Magdeline,Arivechi,566,38720,OWGY196228UZQ,,,,,,,False,False,False,False,False,False,
5686594441,True,False,False,38,Hunter,Scoggans,Jirak,hjiraky@stanford.edu,1917709941,Ciudad de México,Ohio,Coacoatzintla,6,6060,GZVQ132874BJG,27,29583.68,17,3611638032,,,False,False,False,False,True,False,2021-12-09
4853534599,False,False,True,,Cale,Kneafsey,How to preserve,chowtopreservez@mapquest.com,8989796411,Nuevo Leon,Waxwing,Tepetongo,7,69530,QWMS383522EVX,,,,,,,False,False,False,False,False,False,
611449146,True,True,False,83,Odelle,Kimmings,Jugging,ojugging10@sciencedirect.com,3454984243,Coahuila de Zaragoza,Sherman,Santiago Yosonda,9449,47810,RCOJ466352GAO,51,23192.91,36,1671131489,FWDF164177GNDIGAMA,4938,False,False,False,False,True,True,2021-05-17
5525389907,True,False,False,71,Sayer,Bambrough,Roskrug,sroskrug11@google.com,3493615403,Nayarit,Lyons,General Enrique Estrada,93,64790,ZUAB268982VPU,50,11765.53,21,2339635589,,,False,False,False,True,False,False,2018-04-15
6611469620,True,False,False,27,Cointon,Woodhall,Dives,cdives12@simplemachines.org,6456596606,Colima,Sommers,Tepic,9,87950,TRQS510375HHV,19,20754.81,18,8735565518,,,False,False,False,False,True,False,2022-03-22
9625266822,False,False,True,,Rebbecca,Buzine,Bakster,rbakster13@merriam-webster.com,1348772478,Veracruz de Ignacio de la Llave,Lerdahl,Angostura,1393,36330,RXZI532379MYT,,,,,,,False,False,False,False,False,False,
2679837720,False,False,True,,Rodrigo,McGown,Towl,rtowl14@youku.com,3240209799,México,Forest Dale,Santo Domingo Nuxa,422,54020,VTMH022843NZU,,,,,,,False,False,False,False,False,False,
1841962890,True,False,False,8,Sean,Winning,Merlin,smerlin15@miibeian.gov.cn,2922055122,Tlaxcala,Buhler,lvaro Obregn,33051,33980,QCUK266169MMD,53,41733.43,15,6219635516,,,False,False,False,True,False,True,2022-05-16
9968579265,False,True,True,,Brnaby,Elsy,Perrygo,bperrygo16@barnesandnoble.com,9925712095,Nuevo Leon,4th,Batopilas,3830,36070,VTZH937796ZTC,,,,,QBXV125697BFIWZTQA,1630,False,False,False,False,False,False,
8155724838,False,True,True,,Shanta,Conquer,Klosterman,sklosterman17@businesswire.com,9251204975,Queretaro,Barby,Tlaxco,3747,6680,BJMJ948242FQE,,,,,JVIY327001TGUOHFXZ,1390,False,False,False,False,False,False,
9060297274,True,True,False,34,Deidre,Ivashev,MacAnelley,dmacanelley18@wordpress.org,5619420004,México,Melody,Hermenegildo Galeana,17463,98100,GLJX907551FBH,40,44754.54,31,3903354557,ITAN254830GTURBGEC,2062,True,False,False,False,False,False,2019-09-23
1648288540,False,True,True,,Sherlock,Lethardy,Karran,skarran19@creativecommons.org,4579542279,Michoacán,Harbort,Acaxochitln,5,44720,DEQJ103192UAM,,,,,CGGG957718KDHEUXMO,4498,False,False,False,False,False,False,
9770279408,False,True,False,,Rustin,Bohin,Innerstone,rinnerstone1a@sohu.com,9827336055,Veracruz de Ignacio de la Llave,Arrowood,Xich,99995,10760,MAJF774535AWI,,,,,ZYJW683534NVOIDXQL,4940,False,False,False,False,False,False,
5918667099,True,True,False,96,Gregor,Kroger,Sapshed,gsapshed1b@wordpress.org,7386032193,Yucatan,Columbus,Kinchil,6604,57910,GOGE128266VHW,70,29794.29,6,8116099101,LXNH175791QJRRAISQ,95,False,False,False,True,False,True,2020-03-24
9904432753,False,False,True,,Sylvan,Sandbach,Rayment,srayment1c@theglobeandmail.com,7010823077,Durango,Eastwood,Villa Corona,4,90580,ZTWT860603DYW,,,,,,,False,False,False,False,False,False,
4049744431,False,True,True,,Hogan,Suatt,Polle,hpolle1d@bluehost.com,2100664119,Queretaro,Elmside,San Martn Hidalgo,296,97810,RZTF835851FUT,,,,,YQQH496123VCMGKJKW,42,False,False,False,False,False,False,
1713933127,True,False,False,61,Ali,Lucy,Livingston,alivingston1e@virginia.edu,1316527312,Queretaro,Clove,Santa Ana,6,45810,APZL283949JAD,60,16724.87,20,2324543643,,,False,False,False,True,False,True,2022-05-03
4921704866,True,True,False,55,Yale,Landre,Snadden,ysnadden1f@list-manage.com,579231624,Campeche,Thackeray,Teuchitln,6019,82350,KFRU017479YDM,45,10209.7,40,4598919075,GXAH866437QQZYJRMR,4175,False,False,True,False,False,False,2020-05-25
8911258812,True,True,False,53,Wes,Wontner,Peterson,wpeterson1g@uiuc.edu,5736803839,San Luis Potosi,Harbort,San Lorenzo Victoria,5588,44940,ADUJ417600HMT,26,17727.21,3,6624778779,CEYF285178CTHJOQQX,1602,False,False,True,False,False,True,2021-04-28
6935275585,False,False,True,,Annalise,Georgeot,Dreakin,adreakin1h@tmall.com,4674083587,Ciudad de México,Saint Paul,Iztapalapa,100,55010,PZKH674599PCE,,,,,,,False,False,False,False,False,False,
4199776163,True,True,False,53,Riane,Britner,Steanson,rsteanson1i@1und1.de,9491431250,Sonora,Oak,Hoctn,1345,85420,OTRN318361RIH,60,29969.79,28,3354502968,PCTX646645SQUNPVII,3890,False,False,False,False,False,True,2021-02-21
8065477932,True,True,False,86,Courtney,Rabbet,Bonnesen,cbonnesen1j@squidoo.com,1188119354,Durango,Farmco,Ixtapaluca,9798,20860,JNOS723711VWL,51,9419.36,16,7298267681,UXFY360366JTPSUEPO,4566,True,False,False,False,False,True,2021-08-24
4284753104,False,True,True,,Ringo,Giraux,Szapiro,rszapiro1k@weebly.com,7548138092,Sonora,Dahle,Ticul,1754,140,IDIU261417ADG,,,,,RDKD928147NWAYQDBO,1812,False,False,False,False,False,False,
2261977752,True,False,False,39,Iggie,Ties,Bachelor,ibachelor1l@google.com.hk,9697070772,Queretaro,1st,Santiago Nundiche,9294,94400,JHQT794306TXA,32,17898.86,10,9715319015,,,False,False,False,False,True,False,2021-07-05
3004599448,True,False,False,16,Budd,Mayoh,McFie,bmcfie1m@amazonaws.com,916247709,Oaxaca,Westerfield,Purundiro,30,35950,AHLH016380QKN,54,5656.97,18,8649111587,,,False,False,False,False,False,True,2018-08-21
1360440906,True,False,False,33,Glyn,Keays,Merida,gmerida1n@weather.com,7191412231,Coahuila de Zaragoza,Waubesa,Temoac,35110,2680,DJPP304810CZY,23,20894.66,9,7543641703,,,False,False,False,False,False,True,2020-11-19
2305944553,True,False,False,67,Van,Clemmens,Easterby,veasterby1o@latimes.com,3049070395,Jalisco,School,San Sebastin Tutla,0,59610,PBOO717115MNE,69,36199.7,2,1190031435,,,False,True,False,False,False,False,2020-07-31
5709938959,True,False,False,59,Bobbee,Manuely,Stopp,bstopp1p@cornell.edu,8940509695,Tamaulipas,Surrey,Mazapiltepec de Jurez,421,30950,DCVB677438XDQ,33,48143.91,19,1790034851,,,False,False,False,False,False,True,2021-06-08
8131402920,True,True,False,67,Andrus,Fresson,Southerden,asoutherden1q@intel.com,9231724585,Baja California Sur,Wayridge,La Colorada,4,22710,FDUR222350CWW,30,49122.72,2,5556871764,XKVV183361SBFSORTB,2301,False,False,False,False,True,False,2021-05-18
5579040262,True,True,False,1,Blisse,Rysom,Joberne,bjoberne1r@barnesandnoble.com,3047755769,México,Algoma,Tantima,8,18780,YIJP586710VUW,46,46601.69,8,7535114941,HWJC350184GNTUHBHU,4781,False,False,True,False,False,False,2020-11-05
9617377086,True,False,False,62,Sergio,Benzies,Boram,sboram1s@newsvine.com,6419979257,Yucatan,Dahle,Tlahuelilpan,710,70180,OKKL573909VRR,53,37035.31,13,4115840239,,,True,False,False,False,False,False,2021-08-25
7489794106,True,False,False,38,Rhett,Hillburn,Dunrige,rdunrige1t@cocolog-nifty.com,9836120903,Chihuahua,8th,Cozumel,344,33730,IPLH246437FMQ,66,28372.01,1,6226342240,,,False,False,False,False,True,False,2021-05-20
3515360344,True,False,False,87,Annis,Vondrach,Bigglestone,abigglestone1u@networksolutions.com,778485754,Veracruz de Ignacio de la Llave,Golf Course,Santa Mara Zoquitln,32,35430,ATIS106577DQC,20,23670.54,10,3862524772,,,False,False,False,True,False,True,2020-12-17
4263287800,True,True,False,90,Kenn,Dietsche,Challoner,kchalloner1v@dell.com,4675187042,Ciudad de México,Hauk,Tenabo,3431,89040,WSEL859040IPK,68,23999.25,7,1157299759,XVSU496669JQVGFBCL,4750,False,False,False,False,False,True,2019-11-11
9795006736,False,False,True,,Kare,Flarity,Dusey,kdusey1w@craigslist.org,2120083979,Sinaloa,Kings,Pueblo Nuevo,89,78490,TAVH143472AVU,,,,,,,False,False,False,False,False,False,
8464147131,False,False,True,,Nance,Drewell,Sawney,nsawney1x@reverbnation.com,3971152064,Nuevo Leon,Scott,Villa Aldama,723,37810,NCDD291230WGO,,,,,,,False,False,False,False,False,False,
1819451701,True,True,False,97,Chantal,Lukianov,Tegeller,ctegeller1y@loc.gov,3255199172,Quintana Roo,Blue Bill Park,San Pedro Ocotepec,847,71700,OBXX127837MXJ,67,6262.47,16,7551575370,DMKB024701YRFNIIOT,3932,False,False,False,True,False,False,2021-01-12
9362053005,True,False,False,56,Daven,Walkden,Pettingall,dpettingall1z@shareasale.com,1894724514,Chihuahua,Annamark,Santa Cruz de Juventino Rosas,93,23980,FZIR042113ZUB,36,34859.07,39,5862794400,,,False,False,False,False,True,True,2021-10-16
9124372689,False,True,False,,Ulberto,Aylesbury,Dollin,udollin20@youku.com,2923350856,Colima,Hovde,Naranjal,1545,66100,TVYV418348GBP,,,,,PMBM354154WCPRBMQK,1831,False,False,False,False,False,False,
2904319393,True,True,False,85,Rafa,Gager,Yegorev,ryegorev21@chronoengine.com,6744820470,Coahuila de Zaragoza,Mayfield,San Miguel Huautla,290,88090,CFUL655987JQE,65,18066.03,20,5312220108,SHPQ665777NXYQEVPF,4484,False,False,False,False,False,True,2018-11-26
5366809534,True,False,False,72,Dalston,Mordy,Jope,djope22@nymag.com,4131795466,Chiapas,Pennsylvania,Santa Mara Camotln,9,26550,GNEE066760HNU,35,32035.23,14,5936483607,,,False,False,False,True,False,True,2019-02-17
1985335434,False,True,True,,Jody,Kew,Pook,jpook23@bizjournals.com,8819341908,Yucatan,Milwaukee,Tonayn,9,42480,DHYZ828233FWW,,,,,CDSH185488MAFKYADE,3999,False,False,False,False,False,False,
2090377515,True,True,False,12,Lilas,Sheard,Carlon,lcarlon24@marketwatch.com,2353970318,Tamaulipas,Lien,Juan Galindo,34,40610,EUOG846783LSO,36,31550.65,8,7331509225,SXHY245561RLQNJQJJ,410,False,False,False,False,True,True,2021-05-28
1360439518,True,False,False,30,Yehudit,Bampfield,Prendergast,yprendergast25@shop-pro.jp,9772360001,México,Amoth,Huitiupn,9,84270,OUYN728272CMO,49,12814.06,8,6650415471,,,False,False,True,False,False,False,2018-04-16
3714859906,True,True,False,93,Tibold,Grigoletti,Tolley,ttolley26@icio.us,8553691489,Puebla,Dovetail,Ixtapan de la Sal,3580,2170,TODV744571FRM,45,7964.34,5,6680563139,IMEH839384GJLJBCAY,378,False,True,False,False,False,False,2018-08-30
3925971380,False,True,False,,Dominga,Haskayne,Kilbourn,dkilbourn27@aboutads.info,5866525416,Nayarit,Sherman,Manzanillo,811,9650,SFWL329561UWP,,,,,PRFH100762WXBMGWKN,3163,False,False,False,False,False,False,
1895109845,False,True,False,,Tamarah,Swin,Baylay,tbaylay28@nbcnews.com,1131537903,Aguascalientes,Mcbride,Mesones Hidalgo,48,62840,QDIG908258LTO,,,,,ZVEC747759UJGEGFAC,230,False,False,False,False,False,False,
1540233358,False,True,False,,Phyllis,Thornton,Heare,pheare29@oakley.com,179016315,Guerrero,Namekagon,San Juan Atzompa,608,92220,MYWX929464HXB,,,,,DJKV750865AGUTQFAK,1882,False,False,False,False,False,False,
8344786324,True,False,False,53,Luelle,Overel,Ridewood,lridewood2a@fema.gov,7172231016,Veracruz de Ignacio de la Llave,Ridgeway,Emiliano Zapata,546,56520,BQEB394058VTT,47,18285.89,27,8307595292,,,False,True,False,False,False,False,2021-11-26
5682280513,True,True,False,46,Charo,Ainslee,Egre,cegre2b@thetimes.co.uk,2027103952,Campeche,Ludington,Calpulalpan,878,90950,THCW411297BOB,60,33246.83,11,4718585083,NLHZ776347YAEKIACW,2998,False,True,False,False,False,True,2018-01-30
5036031688,False,False,True,,Jacqueline,Gabitis,Saw,jsaw2c@blogspot.com,2460475074,Aguascalientes,Holy Cross,Yehualtepec,1930,23610,CQWR286666BHQ,,,,,,,False,False,False,False,False,False,
4511377174,True,False,False,46,Tim,Openshaw,Hesse,thesse2d@yahoo.co.jp,210407190,Colima,Corry,Lafragua,59384,42560,MLIV503109XMR,41,44797.19,38,7330175042,,,False,False,False,True,False,False,2020-07-12
8226214329,True,True,False,76,Xerxes,Mervyn,Clementucci,xclementucci2e@apple.com,7860383818,Tabasco,Veith,Ayotzintepec,4479,44260,WEPR072191EMR,39,1618.32,28,4912088487,CNOA625439JYCSBBMJ,1085,False,False,True,False,False,False,2022-04-25
790523475,False,True,False,,Robbyn,Lawrance,Lattie,rlattie2f@soundcloud.com,3493035621,Michoacán,Loomis,San Antonio Sinicahua,7150,7990,XUAW949801GEY,,,,,WGHR864400LMHOMLQT,4594,False,False,False,False,False,False,
5975971605,True,False,False,94,Yard,Ruck,Fronks,yfronks2g@house.gov,8450236355,Tabasco,Corry,Teocuitatln de Corona,768,43450,RRMV276238QEL,62,34427.65,38,4192518897,,,False,False,False,False,True,False,2019-06-17
4403158942,False,False,True,,Idelle,Gomby,Edgley,iedgley2h@home.pl,7078974670,Michoacán,Cody,Coatepec,3057,76210,LWKT023047NKZ,,,,,,,False,False,False,False,False,False,
6533511217,True,False,False,85,Umeko,Rosekilly,Valentetti,uvalentetti2i@mit.edu,4022104569,Veracruz de Ignacio de la Llave,Butternut,San Jos del Peasco,5,79170,DHPD139711GFL,31,13543.29,13,6768189712,,,False,False,True,False,False,True,2021-11-12
5196244432,True,False,False,15,Gilberto,Doret,Illes,gilles2j@parallels.com,6556576063,Tabasco,Nancy,Cocula,269,87550,YGJM081229PLD,68,37304.93,31,420163379,,,False,True,False,False,False,True,2022-05-06
4990640057,False,True,True,,Ingamar,O'Lehane,Mum,imum2k@imageshack.us,1931133522,Guanajuato,Everett,Amatitn,4374,3100,CZPL930442FIS,,,,,NHWV117877ZZSJFKAO,182,False,False,False,False,False,False,
3632802839,True,False,False,34,Amata,Danielian,Feast,afeast2l@globo.com,3506291077,Campeche,Maryland,Sabinas Hidalgo,176,64050,HAAA454860LIQ,19,3301.06,38,811585373,,,True,False,False,False,False,False,2018-09-16
7812901983,True,True,False,40,Chiarra,Pauley,Kruger,ckruger2m@geocities.jp,8292280583,Sinaloa,Sugar,Pnuco,43,8950,AHLO222430ARQ,23,32120.15,4,3583425593,IDYF004705ARTJWCFE,1226,False,False,False,True,False,False,2020-07-12
4636980244,True,False,False,52,Findlay,Viel,Plenderleith,fplenderleith2n@github.io,3486305957,Ciudad de México,Brown,Joquicingo,62848,56670,XBKT137550CRV,34,4570.33,1,5874485611,,,False,False,True,False,False,False,2020-05-04
2978051601,True,False,False,39,Betsey,Beagles,Sijmons,bsijmons2o@youku.com,8539330647,Ciudad de México,Russell,Tultepec,6,62300,ZTSJ607638FYF,24,8422.81,26,6609869665,,,False,False,False,False,True,False,2020-12-22
7808150879,False,False,True,,Kailey,Beels,Paddock,kpaddock2p@goo.gl,5191472404,Michoacán,Laurel,Mrtires de Tacubaya,5,85380,VJIZ375393SQG,,,,,,,False,False,False,False,False,False,
770926685,False,False,True,,Sondra,Twiddy,Droghan,sdroghan2q@liveinternet.ru,9632168650,Sonora,Londonderry,Tepexi de Rodrguez,61,48610,LOLL075370XXC,,,,,,,False,False,False,False,False,False,
5099047611,False,False,True,,Cortney,Fish,Try,ctry2r@house.gov,860907339,Veracruz de Ignacio de la Llave,Heath,Hermosillo,93494,47200,TLJB031030SAX,,,,,,,False,False,False,False,False,False,
1026603111,False,False,True,,Carmine,Cavey,Proudlove,cproudlove2s@yellowpages.com,3043430908,Baja California Sur,Holmberg,Tepexco,9,21350,GPDX726091LES,,,,,,,False,False,False,False,False,False,
9420065697,True,False,False,49,Chery,MacVean,de Clerq,cdeclerq2t@census.gov,3795583493,Sinaloa,Delaware,Medelln de Bravo,87092,56650,CXBG156363GCH,48,22618.39,26,7874501913,,,False,False,True,False,False,False,2021-12-04
1982826289,True,True,False,43,Leonanie,Cufflin,Glidder,lglidder2u@cocolog-nifty.com,4129118337,Baja California,Green,Mrida,6967,88520,LOHB586771IPN,50,7994.16,29,9899304961,KDHN566759KANECDYE,4855,False,True,False,False,False,False,2020-04-02
317066168,True,False,False,57,Fredric,Sulley,Illsley,fillsley2v@comcast.net,6952374975,Ciudad de México,Blue Bill Park,Cuauhtmoc,1997,5530,BPMS700739KQJ,61,23838.99,11,7024263777,,,False,False,True,False,False,True,2020-03-30
6216334768,True,True,False,34,Alvin,Antonik,Chellam,achellam2w@pen.io,3650785449,Tabasco,Dryden,Tel de Gonzlez Ortega,7703,44690,FEKS838690KZS,62,39295,25,6813374704,HHZC344682QNLZEKST,803,False,False,True,False,False,False,2021-05-17
4535694681,True,True,False,32,Syd,Barrar,Leuty,sleuty2x@cpanel.net,4256565320,Sonora,Buena Vista,General Zaragoza,66,16590,CORR260795JOW,39,47289.7,33,5932817673,WGMP646279PXCRIEXX,448,False,False,False,False,False,True,2020-02-23
2072125457,True,True,False,3,Auberta,Binnell,Hayes,ahayes2y@altervista.org,1936577435,Campeche,Hintze,San Pedro Mrtir Quiechapa,663,9010,QJZW100916URQ,54,38519.24,32,4972912328,MBUB396983JDQCUURA,3862,False,False,True,False,False,True,2021-10-09
9435837047,False,False,True,,Ailis,Harsum,Buckby,abuckby2z@artisteer.com,6326997617,Morelos,Havey,Magdalena,9,48290,NAZQ243250QDX,,,,,,,False,False,False,False,False,False,
430044046,False,True,True,,Kara,Firth,Addy,kaddy30@tinypic.com,5994936269,Baja California Sur,Brentwood,Tlacotepec Plumas,3,30030,IXUR452403JGY,,,,,XXVH463017OQDIEXRN,2745,False,False,False,False,False,False,
5274510639,True,False,False,21,Teddy,Brunnen,McInnerny,tmcinnerny31@aol.com,7734906011,Sinaloa,American Ash,Zacualtipn de ngeles,10,13580,THEZ921263SWI,69,25866.17,38,467707519,,,False,False,False,False,False,True,2021-09-14
7493248726,False,False,True,,Robbie,Kybert,Anelay,ranelay32@umn.edu,9081729792,Tamaulipas,7th,Jaltenco,146,39980,ENFZ232140IQX,,,,,,,False,False,False,False,False,False,
2001345257,False,False,True,,Leeann,Arp,Vedikhov,lvedikhov33@who.int,4514945065,Ciudad de México,Westport,Vetagrande,19128,81970,KTPA181895RFB,,,,,,,False,False,False,False,False,False,
89859717,True,True,False,57,Xymenes,Fowls,Poynor,xpoynor34@liveinternet.ru,2710504484,Coahuila de Zaragoza,Golf View,Santiago Huauclilla,92266,31270,IJEL475776QGP,65,12197.76,20,7953594280,TYVB280044QHNKUBEW,1469,False,False,False,False,False,True,2021-01-08
1519331946,False,False,True,,Tuck,Claus,Raper,traper35@studiopress.com,670303253,Tamaulipas,Jenifer,Benito Jurez,65,11900,TJXA622165TSO,,,,,,,False,False,False,False,False,False,
3600161760,False,True,True,,Donica,Trubshaw,Stollard,dstollard36@4shared.com,6054188198,Yucatan,Merry,San Salvador el Verde,9,37830,MXFT955546GQP,,,,,LNWM767032ARUJUHBG,2617,False,False,False,False,False,False,
3327640529,False,False,True,,Robinet,McComas,Dukesbury,rdukesbury37@uiuc.edu,215682413,Baja California,Mcbride,Tantoyuca,79,64620,DFBV418929FXT,,,,,,,False,False,False,False,False,False,
9948274677,False,True,True,,Dwight,Labdon,Biddlecombe,dbiddlecombe38@ucoz.ru,8745805951,Aguascalientes,Elmside,Puebla,4,41270,UDNC899809VXY,,,,,DHCG286145UTDHUFIH,2014,False,False,False,False,False,False,
5912515854,True,True,False,27,Tucky,Spencers,Setterfield,tsetterfield39@reverbnation.com,8748572580,Chihuahua,Dixon,Jala,8,30420,SJDW719658WAY,39,29591.97,38,7589859977,AZYF431970BVGWZOAS,3563,False,False,False,True,False,False,2021-11-09
6452993458,True,False,False,14,Waldemar,Jolin,Jarrel,wjarrel3a@nasa.gov,5249739117,Baja California,Reinke,San Miguel Santa Flor,4067,7560,PAMM268538PIW,57,21419.34,39,5817450507,,,False,False,False,False,False,True,2019-01-17
2237167889,False,True,False,,Grier,Mablestone,Brear,gbrear3b@wufoo.com,7252300476,Tlaxcala,Ridgeway,San Felipe Tejalpam,69485,41930,XKXC265548QLV,,,,,ODMV508547PONDZDQP,2657,False,False,False,False,False,False,
4336199507,False,True,False,,Malena,Haddrell,Sibthorpe,msibthorpe3c@quantcast.com,6744719553,Durango,Manley,Tenampulco,47573,60480,RVDS463273KLU,,,,,AQMT440448QFYCTAOB,1699,False,False,False,False,False,False,
389450281,False,True,True,,Ganny,Anderton,Schuler,gschuler3d@example.com,3759955679,Oaxaca,Melrose,Cinega de Zimatln,26642,19950,YGMW272141HNS,,,,,FBKA680991CLYEVHOM,3161,False,False,False,False,False,False,
4322192418,False,False,True,,Delbert,Bartolomucci,Jagels,djagels3e@mapy.cz,5977724659,Michoacán,Fallview,San Andrs Paxtln,2,29720,AFTH761870XZK,,,,,,,False,False,False,False,False,False,
4649430798,True,True,False,49,Jessika,Ravenshear,Bamforth,jbamforth3f@sourceforge.net,9417968046,Durango,Sachs,Tlanepantla,72754,43030,DFAK622400YSD,26,35238.67,3,3647877750,TVXZ013894BGOFLXNY,4980,False,False,True,False,False,False,2021-12-04
2181256089,True,False,False,76,Camella,Nutkins,Ector,cector3g@canalblog.com,4334275029,Zacatecas,Pennsylvania,Penjamillo,24,23230,WZAD289122PHX,61,34931.07,37,1758973690,,,False,False,False,False,True,True,2019-07-11
7443380397,True,True,False,77,Roderigo,O'Geneay,Dyers,rdyers3h@howstuffworks.com,4680014798,Colima,Dahle,Ensenada,828,20090,LKJU422141JSJ,27,22566.95,10,1495428814,JLDN730526VXFPEUSZ,3025,False,False,False,False,True,False,2020-10-19
3779789958,False,False,True,,Dori,McWhannel,Malenfant,dmalenfant3i@businessweek.com,9951770181,Baja California Sur,Maple,Matlapa,6,90420,YWBE508200BQQ,,,,,,,False,False,False,False,False,False,
263502618,True,True,False,91,Hilly,Normadell,Fellgatt,hfellgatt3j@comcast.net,600658148,Quintana Roo,Fair Oaks,Gustavo Daz Ordaz,2949,5310,GHOS690306JVK,42,12098.6,40,5990439441,XSZD361902REYHHOAB,1133,True,False,False,False,False,True,2022-06-28
2898922803,True,True,False,21,Albertina,Yeld,Belderson,abelderson3k@patch.com,442982083,Baja California Sur,Porter,Totutla,1263,32280,HUFQ482623RXX,69,40531.57,27,455667758,FNRE608051LJVLBUYT,4654,False,True,False,False,False,True,2018-03-08
361692480,False,True,False,,Alexina,Risbridger,Manuaud,amanuaud3l@nsw.gov.au,3651486619,Hidalgo,Twin Pines,San Juanito de Escobedo,5690,54280,IKNH339726TOQ,,,,,DSMW754218OEOXUJKP,2315,False,False,False,False,False,False,
9713347057,True,True,False,91,James,Wride,Petr,jpetr3m@51.la,2730567781,Veracruz de Ignacio de la Llave,Dryden,Chinantla,52,98320,JKAU197636MBK,56,25597.47,33,6451253614,FAJM720678GJEOUBGV,17,False,False,True,False,False,False,2018-07-03
4992115234,False,True,False,,Shayne,O' Meara,Gozard,sgozard3n@qq.com,6235267766,Veracruz de Ignacio de la Llave,Hovde,Villa de Tututepec de Melchor Ocampo,1123,80810,YGQD608343HOD,,,,,FSIP550138AKWLDHDG,3769,False,False,False,False,False,False,
2963956836,True,False,False,31,Shawna,Stribling,Holtham,sholtham3o@census.gov,2479105888,Ciudad de México,Dryden,Colotln,2,48790,JIUN529726OVB,26,23764.97,1,7936938430,,,False,False,True,False,False,False,2018-05-23
8540079398,False,True,True,,Bebe,Dawdary,MacAnespie,bmacanespie3p@virginia.edu,1184792238,Jalisco,Claremont,Pnuco de Coronado,755,45750,CXAK417955UPR,,,,,DYKQ552748ULVTQOIJ,1320,False,False,False,False,False,False,
1630148845,True,True,False,44,Allegra,Duker,Yerborn,ayerborn3q@weebly.com,9617405255,Aguascalientes,Trailsway,Guanajuato,54251,5120,KNFL866766XHK,48,23513.27,2,1979934103,YUAZ698099EKRHEJSC,276,False,False,False,False,False,True,2019-10-20
7678826123,True,False,False,42,Si,Govern,Gilhespy,sgilhespy3r@nytimes.com,1999711384,Nayarit,Farmco,La Perla,71636,32180,AXDQ103667ZBX,31,45540.41,34,6437826022,,,False,False,False,False,False,True,2020-06-15
5936199493,False,True,False,,Bernard,McNirlin,Cracoe,bcracoe3s@vistaprint.com,8069417776,Sonora,Buhler,San Buenaventura,33,67360,CIID252527TWG,,,,,VBTB220911IURIYWXF,4296,False,False,False,False,False,False,
859577501,True,False,False,82,Hilda,Landon,Kebbell,hkebbell3t@economist.com,5014582684,Nuevo Leon,Buhler,San Juan de los Lagos,47,86760,GBHP397962KZL,65,3461.26,16,2930365354,,,True,False,False,False,False,True,2020-01-29
5208743413,False,True,True,,Corabella,Crosland,Poyzer,cpoyzer3u@cornell.edu,731933509,Oaxaca,Grayhawk,Luvianos,18061,32920,GCBD958406YVA,,,,,GEPQ396514ZULUFBFW,3102,False,False,False,False,False,False,
9704793735,False,True,False,,Michelina,Rooson,Chotty,mchotty3v@accuweather.com,4767343275,Tabasco,Meadow Vale,Pihuamo,4121,8270,KOCK977771NED,,,,,LUST651564HOFRBKYN,4933,False,False,False,False,False,False,
3344604514,False,False,True,,Kendell,Twells,Pfeffel,kpfeffel3w@privacy.gov.au,8254295180,Puebla,Banding,Esperanza,498,74770,AZEB721873WNW,,,,,,,False,False,False,False,False,False,
4197988907,False,True,True,,Aleda,Plenderleith,Poff,apoff3x@sitemeter.com,2447780371,Colima,Northridge,San Sebastin Tecomaxtlahuaca,57,85470,BHXP907889ZAQ,,,,,SWFA859064HCLBGPLS,3665,False,False,False,False,False,False,
3241981965,True,False,False,7,Kathi,Belli,Jerzycowski,kjerzycowski3y@unesco.org,9034111383,Baja California Sur,Melrose,Tlachichuca,39746,97250,HWHN720288CDU,18,1634.46,39,9834192186,,,False,True,False,False,False,False,2022-03-14
5053860298,False,True,True,,Anthiathia,Stapleford,Cassella,acassella3z@abc.net.au,6536041530,Guerrero,Sloan,Santa Ins del Monte,2488,2150,NURV533995TKZ,,,,,GFZM670435GFUAKNMR,657,False,False,False,False,False,False,
9467139113,True,True,False,17,Devlen,Cabel,Feasley,dfeasley40@typepad.com,6618724095,Quintana Roo,Grover,Coronado,391,64120,USKM784920JCB,61,49754.73,37,4457131841,DJFA233358RFQJNKHE,2800,False,False,False,False,True,True,2020-08-29
5277893130,True,False,False,13,Roda,Sherborne,MacDwyer,rmacdwyer41@sun.com,3238617341,San Luis Potosi,Thompson,Ignacio Zaragoza,453,79240,LQEY949413UJC,53,39489.22,19,5939309401,,,True,False,False,False,False,True,2021-02-19
3266169129,True,False,False,74,Caril,Hampstead,Koppes,ckoppes42@yandex.ru,1670765533,Veracruz de Ignacio de la Llave,Karstens,San Juan Bautista Tlachichilco,236,31600,YEAR425017RKX,45,9433.87,7,4653834399,,,False,True,False,False,False,False,2018-09-30
1968274558,False,True,True,,Meara,Cockitt,Starton,mstarton43@homestead.com,7558337653,Zacatecas,Waubesa,Villa de Reyes,62684,18110,ZITG283229HCT,,,,,BBBQ180327VHMUQOKJ,4197,False,False,False,False,False,False,
8988114759,False,True,True,,Tanhya,Limon,Haughey,thaughey44@sitemeter.com,3733557722,Chiapas,Upham,Texcaltitln,47,52120,JOMX571574OKV,,,,,XEHF786877MXCOHBME,315,False,False,False,False,False,False,
1600605085,False,True,False,,Bryana,Eckert,Newvell,bnewvell45@virginia.edu,8421381325,Tamaulipas,Nelson,Navolato,6631,55450,EMIF833694SXQ,,,,,YONW663873PQGIRPLW,3938,False,False,False,False,False,False,
8879203287,True,True,False,45,Shurwood,Dollin,Hornung,shornung46@miitbeian.gov.cn,7282395695,Coahuila de Zaragoza,Trailsway,Lerdo de Tejada,57,13930,AARD169596AQD,35,37735.32,5,6843184259,LXJF246815ASTMDMCU,2088,False,False,False,True,False,True,2018-10-10
4474238046,False,True,False,,Delano,Larmett,Feige,dfeige47@godaddy.com,845028687,Nuevo Leon,Troy,Tamun,77290,97740,ZRFY165729OQR,,,,,QELN684516TMHODMXH,754,False,False,False,False,False,False,
732357583,True,False,False,49,Elladine,Abrahams,MacNeish,emacneish48@google.com.au,239675417,Yucatan,Spohn,Xochistlahuaca,439,19260,LPRP650731SAZ,35,16669.45,40,4211373899,,,False,False,True,False,False,True,2019-11-27
7104153278,True,True,False,84,Patricia,Aleveque,Hullyer,phullyer49@gmpg.org,3673333071,Yucatan,Fieldstone,Naranjos Amatln,86,44990,HPBI880326YCH,41,41106.05,38,4200768988,YIMD289918DVMSBRMA,3090,True,False,False,False,False,True,2020-02-04
4038903146,False,True,True,,Ichabod,Austwick,Mattioli,imattioli4a@booking.com,3883543498,Nuevo Leon,Browning,Chalco,9156,8570,HEXA395940LCR,,,,,QONM556084VEBANKRP,3195,False,False,False,False,False,False,
8160240655,True,True,False,56,Mordy,Gurery,Labern,mlabern4b@mlb.com,8782892152,Aguascalientes,Oak Valley,Huitzilan de Serdn,1316,34050,VFUM035649ANT,27,3854.06,38,8272585164,LUQD983360WMXIFGHL,4403,False,False,True,False,False,False,2022-02-28
1816392415,True,False,False,49,Darci,McCullen,Darko,ddarko4c@google.de,5221448037,Zacatecas,Melody,San Francisco Ozolotepec,15,49930,QRRM397888ZKN,29,34063.8,36,2151567104,,,False,False,False,False,False,True,2019-08-23
6364270419,False,False,True,,Lulu,Kruger,Latty,llatty4d@ox.ac.uk,7559263665,Tlaxcala,Debra,Zapotitln,400,73680,FWWH815377YKS,,,,,,,False,False,False,False,False,False,
4398350675,False,False,True,,Jenine,Marple,Kelston,jkelston4e@census.gov,2294435149,Colima,Hayes,Jimnez,8048,71880,LZZA544967QUL,,,,,,,False,False,False,False,False,False,
6504146957,False,False,True,,Frederik,Huffer,Adamides,fadamides4f@tinyurl.com,9195642302,Colima,Stone Corner,Singuilucan,56,76800,VAJO085560LHB,,,,,,,False,False,False,False,False,False,
8194988779,True,False,False,15,Corri,Twede,Gray,cgray4g@e-recht24.de,2877992484,Campeche,Fairfield,El Limn,0,27420,BRNK043015AJG,68,47184.73,24,3150774486,,,True,False,False,False,False,True,2020-12-30
2359755788,True,True,False,17,Eulalie,Culmer,Knutton,eknutton4h@desdev.cn,7267177572,Sinaloa,Trailsway,Villa Comaltitln,19,19000,JLBK069106QEY,63,48152.07,24,272507243,BCAG088752KDARVBOC,3558,True,False,False,False,False,True,2020-09-09
2437680503,True,False,False,57,Tab,Gurys,Deans,tdeans4i@lycos.com,236295976,Chihuahua,Homewood,Ixtlahuacn de los Membrillos,1457,4460,FUJN585414BCO,59,25740.67,33,3880162260,,,False,False,False,True,False,False,2018-09-03
8997190451,True,False,False,96,Laurena,Bourdice,Slyford,lslyford4j@nature.com,9205709386,San Luis Potosi,Carpenter,Antiguo Morelos,357,67450,LADW005621QUY,55,10640.13,14,532687446,,,False,False,False,False,False,True,2020-02-19
9602216528,False,False,True,,Flor,Reggio,Opie,fopie4k@about.com,6971653731,Yucatan,Upham,Guadalupe de Ramrez,82,22900,NJPQ088321JJI,,,,,,,False,False,False,False,False,False,
4111505148,True,True,False,98,Deina,Kielt,Tuck,dtuck4l@whitehouse.gov,8397104211,Jalisco,Pine View,Tlacuilotepec,925,7330,ODQJ576396NNN,32,30017.35,1,5197436572,HEOS230400BBMZXXUF,3431,False,False,False,True,False,True,2021-07-05
7190912463,True,False,False,40,Bendicty,Mosson,Buesnel,bbuesnel4m@mashable.com,6394109759,Nuevo Leon,Basil,Huauchinango,68,31820,SGMC862779LDK,56,46103.35,23,3623291380,,,False,False,False,False,False,True,2020-08-14
329825151,True,True,False,48,Gunar,Feldstein,Vagges,gvagges4n@wordpress.com,8824762537,Queretaro,Dayton,Soyopa,61,23430,WKLI601293OLJ,47,6262.64,12,6780405273,BKJX907609XWNCFTTA,2490,False,False,False,False,False,True,2018-11-01
8951574021,True,False,False,86,Wendell,Casarini,Sancroft,wsancroft4o@google.nl,1563289799,Aguascalientes,Sunnyside,Bochil,1133,73680,JCPI273807JQV,18,10449.46,14,1136169448,,,False,False,False,False,False,True,2019-04-02
9826239206,True,True,False,24,Merilee,Bissett,Signori,msignori4p@xing.com,1619123568,Ciudad de México,Sommers,Yaxkukul,84104,89730,VLLH791451ZCO,19,35627.18,13,1529672859,ACLS577344QVUEPZCD,4807,False,False,False,False,False,True,2020-04-02
5560899485,True,True,False,69,Nicky,Higgonet,Kerbey,nkerbey4q@taobao.com,4298166192,Guerrero,Hayes,San Pablo Villa de Mitla,16766,49050,HCFW195590ZPZ,66,30040.84,38,6650454310,WIVW026109TQIAGMSR,3196,False,False,False,False,False,True,2021-03-03
7282861144,True,False,False,94,Ralina,Cullingford,Hallbord,rhallbord4r@dailymail.co.uk,215675139,Coahuila de Zaragoza,Blaine,Cocotitln,2,97950,WJTX818864WZP,40,46463.31,19,1810273570,,,True,False,False,False,False,False,2019-02-28
2064619302,True,True,False,52,Peterus,Rudwell,Keasley,pkeasley4s@gmpg.org,1928410027,México,Washington,Apazapan,5284,77010,UEMC551109VUF,49,39873.57,35,867427674,WDCN440782SGSLAANR,446,False,False,True,False,False,True,2019-07-19
9404104552,True,True,False,58,Ado,Josefer,Anglim,aanglim4t@ed.gov,9091353399,Chiapas,Monica,San Jernimo Tecatl,80329,81800,TKFO719564IAS,40,44056.3,17,4704772608,GUUC352144SGDROQLQ,3281,False,False,True,False,False,True,2020-12-20
2970957881,True,True,False,68,Carmencita,Varfolomeev,Clewarth,cclewarth4u@reference.com,1153968675,Chiapas,Green Ridge,Ameca,5237,32520,FYOV448460LDD,66,15408.05,1,6192527517,QZCQ595247LXIZNYPQ,4468,True,False,False,False,False,True,2021-03-16
9324630994,True,True,False,29,Tandy,Wigley,Trahmel,ttrahmel4v@ftc.gov,6001733729,Chiapas,Dwight,Santiago Minas,4476,21840,HSAP081838IIE,34,37063.13,39,8427385700,LSRH936757QLKIWGPZ,2435,False,True,False,False,False,True,2019-11-11
1889390120,False,True,True,,Wallis,Fawthorpe,De Gouy,wdegouy4w@tumblr.com,5241339694,Tabasco,Milwaukee,Santiago Ihuitln Plumas,7663,29650,SWZH184037LYO,,,,,SBDP743247LWBVNUSO,4903,False,False,False,False,False,False,
4943423479,False,True,True,,Uri,Ricker,Quilty,uquilty4x@pcworld.com,6496224207,San Luis Potosi,Declaration,San Andrs Solaga,15114,17110,CGVA957515QLI,,,,,SXVL369451XZHPKUNM,1467,False,False,False,False,False,False,
2897541330,True,False,False,97,Shaun,Volet,Candish,scandish4y@ning.com,1537376235,Baja California,6th,Uriangato,111,82480,HYOS313377SRV,33,29464.04,5,935320328,,,False,True,False,False,False,False,2019-02-15
1374067615,False,True,True,,Cal,Cocci,Ciotti,cciotti4z@tinypic.com,5445671798,Sonora,Fulton,San Bartolom Ayautla,6255,3080,NXMN110376KKI,,,,,IENI228543APKXDXER,1985,False,False,False,False,False,False,
4450805932,True,True,False,68,Saunder,Creegan,Lyles,slyles50@rakuten.co.jp,438779688,México,Corry,San Jos Estancia Grande,2384,14080,LFIX879506DDC,68,1872.95,38,1236157948,NMZM868132HRBLVUWY,2355,True,False,False,False,False,True,2019-03-24
5363349456,False,True,False,,Eadmund,Hurkett,Lomis,elomis51@github.io,4630908580,San Luis Potosi,Melrose,Santiago Camotln,825,24160,TFKV396537BKO,,,,,YNFP582916AUZTZYEB,1566,False,False,False,False,False,False,
4326672560,True,True,False,45,Susette,Le Gallo,Gabotti,sgabotti52@pbs.org,6005842153,Hidalgo,Menomonie,Madera,7296,66360,HRLP658798BXU,41,14954.17,32,1701938928,NHWF080309LZWFAYDB,1317,False,False,False,False,False,True,2019-07-13
4977520674,False,False,True,,Andrea,Sirrell,Stowe,astowe53@wikimedia.org,4828298485,Guerrero,Grasskamp,Miquihuana,15889,78310,DMWA268149TSU,,,,,,,False,False,False,False,False,False,
966675254,False,True,True,,Nollie,Ramme,Varndall,nvarndall54@scribd.com,5662843660,Queretaro,Moland,Acteopan,46,99160,DNWP374887ZYK,,,,,NEPZ192074VQEAYEEZ,1010,False,False,False,False,False,False,
270385581,True,False,False,38,Rowney,Humpage,Pierse,rpierse55@nymag.com,6514050879,Nayarit,Lien,Quecholac,5,5920,WUGZ802963VOX,26,48039.9,13,5766204632,,,False,False,True,False,False,True,2020-12-25
9963395855,False,True,False,,Melisandra,Stirland,Meric,mmeric56@oaic.gov.au,8273245596,Guanajuato,Burrows,Los Ramones,2,83600,RPOG714120OKP,,,,,JNXV699891FHZEJTMA,1885,False,False,False,False,False,False,
6540181853,False,True,False,,Jarid,Norgate,Hounihan,jhounihan57@mac.com,3010949809,Nuevo Leon,Prairieview,Ahuacatln,6498,57610,CYCO468709WOD,,,,,ISVW416521NXIZDKOS,1243,False,False,False,False,False,False,
1504195635,False,True,True,,Kennett,Piel,Sangster,ksangster58@go.com,2792752719,México,Loomis,Cucurpe,264,84190,TXQV405497PLV,,,,,IRHA070913YAIEDRJN,924,False,False,False,False,False,False,
5312878223,True,False,False,22,Lem,MacGovern,Rathjen,lrathjen59@independent.co.uk,8963741997,Zacatecas,1st,Pueblo Nuevo,2,570,RUBG817790GEB,39,35083.08,27,1866270426,,,False,False,True,False,False,False,2021-07-31
8103847467,False,True,True,,Lem,Dearlove,Berthelmot,lberthelmot5a@java.com,5915735291,Puebla,Mockingbird,San Jos Teacalco,181,25530,ZUUI544504MDL,,,,,LJLZ739029SFRATDME,2238,False,False,False,False,False,False,
3805224239,False,True,True,,Courtnay,Diggons,Blasetti,cblasetti5b@hhs.gov,2089263851,Aguascalientes,Hansons,Morelia,38391,17680,CABP971221HZS,,,,,LFGT029667CMZDEFSI,4351,False,False,False,False,False,False,
4048060101,True,True,False,50,Brigham,Alesio,Mourgue,bmourgue5c@blogger.com,5478059492,Chiapas,Dunning,Pahuatln,7838,69510,KGLE176454QQK,53,25542.24,27,4831203288,NSAG860027VRCTIYBK,270,False,False,False,False,False,True,2020-11-12
8544883280,False,False,True,,Franni,Humphrys,MacKim,fmackim5d@who.int,5688437514,Michoacán,Farwell,Petlalcingo,0,32720,SJHR161626NHW,,,,,,,False,False,False,False,False,False,
2717995001,False,False,True,,Robbyn,Notman,How,rhow5e@taobao.com,9939736942,Campeche,8th,Tetela de Ocampo,265,44040,PCQZ410512XRB,,,,,,,False,False,False,False,False,False,
9440291950,False,False,True,,Deb,Trask,Kelloch,dkelloch5f@dailymotion.com,7886204146,Jalisco,Fremont,Teloloapan,8,1250,YYNV450205NOJ,,,,,,,False,False,False,False,False,False,
2060847509,False,False,True,,Hailey,Henricsson,Wigmore,hwigmore5g@bandcamp.com,9281067145,Tlaxcala,Dakota,San Fernando,55,18780,BUGI609793MUE,,,,,,,False,False,False,False,False,False,
6177835138,False,False,True,,Daune,Karolczyk,Mattersey,dmattersey5h@amazon.de,2271590076,Puebla,7th,Jilotln de los Dolores,6411,54280,ZKCR962700WUT,,,,,,,False,False,False,False,False,False,
7848674710,True,False,False,86,Anni,Walmsley,Muddiman,amuddiman5i@vinaora.com,2312463149,Veracruz de Ignacio de la Llave,Fairview,Nauzontla,6,71360,SDOA110813UVD,68,36802.4,4,9963938753,,,False,False,False,False,True,True,2021-08-25
3241339201,True,False,False,20,Dian,Filochov,Whear,dwhear5j@cam.ac.uk,890309968,Hidalgo,Portage,Santo Domingo Xagaca,494,99160,GPXN576409VGN,54,38037.1,35,8818450603,,,False,False,False,False,True,False,2021-10-04
3832026627,True,False,False,45,Gerrie,Osgar,Deveral,gdeveral5k@nsw.gov.au,7763466013,Yucatan,Grover,Santa Mara Jacatepec,1472,14580,MQGR174132YLZ,50,17881,37,6530745870,,,False,False,False,False,False,True,2018-05-08
389140275,False,True,True,,Kelley,Whittock,Regan,kregan5l@hud.gov,2810578420,Baja California Sur,Artisan,Tultitln,699,34250,ISNU289581GAQ,,,,,JBKF447441ECFXFIMB,4020,False,False,False,False,False,False,
9966131850,True,True,False,61,Molli,Rearie,Hathwood,mhathwood5m@domainmarket.com,8765215302,Hidalgo,Jay,Mezquitic,34,4450,TKPM504281FCY,31,45056.93,13,839510960,QWTP386599SQKKAWPK,2571,False,False,False,True,False,False,2018-10-04
6312031349,False,False,True,,Jarvis,Hedingham,Hasnip,jhasnip5n@odnoklassniki.ru,2742810725,Durango,Buhler,San Miguel Amatitln,55,88160,YXWA690004ESP,,,,,,,False,False,False,False,False,False,
2658285226,False,False,True,,Royce,Haughan,Piatkow,rpiatkow5o@economist.com,5129351855,Zacatecas,Shopko,Miguel Auza,55,84440,MGOT676968WUT,,,,,,,False,False,False,False,False,False,
8295194526,False,False,True,,Rebecka,Diplock,Fullerton,rfullerton5p@typepad.com,5268234822,Oaxaca,Becker,Coronango,83147,45970,KNKB234687WAU,,,,,,,False,False,False,False,False,False,
6148690049,False,True,False,,Siobhan,Burchmore,Bestwall,sbestwall5q@123-reg.co.uk,2068606375,Sonora,Schmedeman,San Juan Bautista Guelache,4,14980,RYHQ628477EXO,,,,,GBYL007802ZIZFSFRS,4430,False,False,False,False,False,False,
5762667793,True,True,False,85,Grant,Crowne,Kunrad,gkunrad5r@freewebs.com,9828548479,Coahuila de Zaragoza,Mallard,Huixtn,2,18950,XVMO970028WEE,34,39279.54,23,2936120249,BENO008791HCOKHVEI,3258,False,False,True,False,False,False,2019-08-02
2258224145,False,True,True,,Jeremy,Rawkesby,Greig,jgreig5s@berkeley.edu,6758062714,Tlaxcala,Dovetail,General Simn Bolvar,4885,51670,AEVG092807QPX,,,,,LQFX065658DIMYVCUW,3361,False,False,False,False,False,False,
6725827567,False,False,True,,Rolando,Corsor,Conford,rconford5t@networkadvertising.org,9037024590,Puebla,Boyd,Santa Mara Ipalapa,465,76590,PGHM159984TKW,,,,,,,False,False,False,False,False,False,
7885017345,True,False,False,78,Lorrin,Karolyi,Rolfe,lrolfe5u@youtu.be,7206183965,Guerrero,Moulton,Vega de Alatorre,12,76430,GBIJ318368NQZ,49,8233.23,22,724569106,,,False,False,False,False,True,False,2018-11-06
7318087845,True,False,False,24,Morry,Dengel,Elphey,melphey5v@meetup.com,6678932321,Coahuila de Zaragoza,Packers,Venustiano Carranza,8,34100,YPLA333894RKY,46,45418.87,10,4923262135,,,False,False,False,False,True,True,2018-10-22
9891529466,False,False,True,,Diahann,Coole,Faers,dfaers5w@upenn.edu,507897828,Nayarit,Crowley,Santiago Miahuatln,718,24420,TUPB061180TSO,,,,,,,False,False,False,False,False,False,
2304353832,False,True,False,,Natka,Dakers,Aylmore,naylmore5x@newyorker.com,6843771356,San Luis Potosi,Becker,Apaseo el Grande,6,31800,FITX339402WCE,,,,,XCJH275782ZOFHNMTT,845,False,False,False,False,False,False,
2068139578,False,True,True,,Jesse,Govenlock,Dargie,jdargie5y@mail.ru,3755276701,Chiapas,Stone Corner,Amatenango de la Frontera,44670,58450,ZLHS381916JWA,,,,,UARU935973KPUXHCLI,3315,False,False,False,False,False,False,
7384086196,True,False,False,85,Aeriel,Stookes,Panyer,apanyer5z@cdc.gov,3590482848,Jalisco,Carberry,San Juan Taba,80,76570,HDDU243831ESK,34,27564.14,25,2827415821,,,False,False,False,True,False,False,2019-12-14
1533764737,False,False,True,,Indira,Shafto,Wealthall,iwealthall60@cnn.com,291096206,Baja California,Maple,Encarnacin de Daz,0,26130,LYEJ457252AKB,,,,,,,False,False,False,False,False,False,
2683577435,True,True,False,78,Garv,Boulstridge,Larkkem,glarkkem61@devhub.com,8303748792,Michoacán,Almo,Santa Cruz Papalutla,81,10960,BXNU869487ABC,61,1635.2,8,801032911,PGXG025926RFSAXWEV,1916,False,False,True,False,False,False,2019-12-19
5238841168,False,True,True,,Nero,Maybey,Wilmington,nwilmington62@independent.co.uk,7764284990,Tlaxcala,Shasta,San Vicente Coatln,80,63900,ZHRB127183KUI,,,,,BSNQ714497SICKPULP,3727,False,False,False,False,False,False,
466159214,True,True,False,64,Angeli,Eliassen,Cartlidge,acartlidge63@taobao.com,834928132,Tabasco,Garrison,Chiautzingo,798,29070,VVYG103121YUB,63,33231.08,23,1573535812,FLGO381430VMKFPVOU,4307,False,True,False,False,False,True,2019-07-07
5697995127,False,True,True,,Eldridge,Castlake,Jeyness,ejeyness64@angelfire.com,2889166767,Veracruz de Ignacio de la Llave,Reindahl,Chapultenango,12074,1180,RNTE859318QZW,,,,,CTOR114630TMBDPRQY,1728,False,False,False,False,False,False,
9370267766,True,False,False,74,Alfredo,Deane,Corbet,acorbet65@paginegialle.it,184482233,Tabasco,Warbler,La Antigua,565,28190,UJAP461034NZO,31,16339.76,24,6968319352,,,False,False,False,True,False,True,2021-09-16
8085446868,False,True,True,,Montague,Toleman,Vahl,mvahl66@bloglines.com,1418921889,Colima,Hanson,Cosal,8,32720,RJMT732137HMW,,,,,AHZP979045TKTCBFWC,154,False,False,False,False,False,False,
2940815592,False,True,True,,Bradan,Wards,Gabbatt,bgabbatt67@webs.com,1596624441,Ciudad de México,Shasta,Linares,28372,80020,NCLM895704XHK,,,,,IXFF999972BKLSNNVI,2394,False,False,False,False,False,False,
3657392180,False,True,True,,Laryssa,Haugh,Hutson,lhutson68@mapy.cz,1391991317,Nayarit,Jay,Valle de Chalco Solidaridad,99173,85960,OGOB745875WTU,,,,,JSFQ173457IDAYOTEL,2764,False,False,False,False,False,False,
5205137167,False,False,True,,Casar,Klimczak,Drejer,cdrejer69@goo.ne.jp,8854678433,Nuevo Leon,Stone Corner,Metapa,4841,88780,BWWD194575FYD,,,,,,,False,False,False,False,False,False,
4587960249,True,False,False,27,Jocko,MacFall,Padley,jpadley6a@furl.net,9729771420,Hidalgo,Londonderry,San Jos Lachiguiri,3501,95380,AWZK173467SYU,45,36058.57,7,6757471611,,,False,False,False,False,False,True,2019-01-09
4833689890,True,False,False,33,Austin,Fairy,MacSkeagan,amacskeagan6b@ocn.ne.jp,9431188972,Ciudad de México,Nova,Coatzintla,92222,56520,ITMV931382ENS,51,36429.37,30,2684298111,,,False,False,True,False,False,False,2019-11-12
2870971128,False,False,True,,Maren,Gossington,Websdale,mwebsdale6c@woothemes.com,4883778603,Quintana Roo,Corscot,Cuyamecalco Villa de Zaragoza,81,53210,YJIR468730ZCK,,,,,,,False,False,False,False,False,False,
7630311281,True,True,False,90,Thorin,Euston,Yandell,tyandell6d@ca.gov,2747571570,Oaxaca,Jana,Otatitln,0,3380,XEWU752177GUW,65,32262.4,40,3372438786,VUTW901509DDJWCOEU,548,False,False,False,False,True,False,2019-01-21
9037132385,True,False,False,12,Noreen,McLagan,Flay,nflay6e@sakura.ne.jp,9128767657,Zacatecas,1st,Santiago Tuxtla,702,68760,PYYZ143926RWL,51,38767.2,10,896199025,,,False,False,False,False,False,True,2018-02-04
4028269508,True,False,False,9,Catlaina,Allenson,Fairfoul,cfairfoul6f@flickr.com,9074898021,Baja California Sur,Northfield,Nezahualcyotl,54,65150,SEEX298442XHV,62,41197.85,35,7788939880,,,False,False,False,False,False,True,2021-08-12
8254347204,False,True,False,,Gretel,Toplin,Huddle,ghuddle6g@indiegogo.com,5535742325,Aguascalientes,Gulseth,San Andrs Tenejapan,9,50610,PIJD169177URO,,,,,ANUV806176REBWGJEE,3782,False,False,False,False,False,False,
4597283771,False,False,True,,Claudio,Beet,Crame,ccrame6h@addtoany.com,837949636,Veracruz de Ignacio de la Llave,Rigney,San Juan Bautista Coixtlahuaca,7177,84200,FIWE647880FMF,,,,,,,False,False,False,False,False,False,
8948853576,False,True,True,,Hussein,Egle of Germany,Sprade,hsprade6i@reuters.com,4474866906,Baja California Sur,Independence,Tequixquiac,9,59940,JBVS079663RMJ,,,,,YFTL798760WHYMVJZW,1968,False,False,False,False,False,False,
372242028,True,True,False,5,Oralie,Giblett,Attenbrough,oattenbrough6j@smugmug.com,6899342751,Oaxaca,Montana,Santa Catarina Juquila,57,65880,OGVF630763RUK,58,46559.58,18,6739308632,ISVA420072FHBQMQNP,4154,False,False,False,False,False,True,2022-05-27
8102138693,False,False,True,,Johanna,Baumaier,Futty,jfutty6k@disqus.com,5098021389,Coahuila de Zaragoza,Dwight,Sahuaripa,7496,55000,ZYYK672915DTT,,,,,,,False,False,False,False,False,False,
6540307150,True,False,False,90,Elie,Janecki,Daveridge,edaveridge6l@google.com.br,9037560707,Chiapas,Blaine,La Pe,79381,75320,AFVD157009HMT,51,1115.74,4,9272721855,,,True,False,False,False,False,False,2019-10-25
7967170438,True,True,False,84,Fallon,Matts,Coot,fcoot6m@cornell.edu,6631997036,Veracruz de Ignacio de la Llave,Homewood,Cuatro Cinegas,6194,25160,NJUN710673ISP,67,3908.42,26,9830788825,HWPE056195OQQMRFIS,601,False,False,False,False,False,True,2018-06-19
5359230600,False,True,False,,Carmen,Radborn,Ricarde,cricarde6n@globo.com,5562904810,Morelos,Autumn Leaf,Zitcuaro,8828,93760,ELVX689142OOC,,,,,VHCY256926XWCORBUC,214,False,False,False,False,False,False,
1240527778,False,False,True,,Angel,Kettridge,Sooper,asooper6o@amazon.co.jp,4728465235,Tamaulipas,Dawn,San Pablo Coatln,8,31860,JWZN196322MZE,,,,,,,False,False,False,False,False,False,
5022587215,False,True,False,,Kaila,De Mattia,Nossent,knossent6p@weibo.com,7613098146,Sinaloa,Johnson,Santa Mara Yavesa,5,33770,KMOI580522OQX,,,,,LKVX406831APKUVIBD,4795,False,False,False,False,False,False,
4962996134,False,False,True,,Deane,Bisson,Maryott,dmaryott6q@ucla.edu,6804845688,Morelos,Village Green,Apan,516,33790,SFCB828280KRE,,,,,,,False,False,False,False,False,False,
901851285,False,False,True,,Daile,de Tocqueville,Anselm,danselm6r@51.la,1481372518,Guanajuato,Dixon,Larrinzar,921,23500,KCLH562398UEI,,,,,,,False,False,False,False,False,False,
4608088326,True,True,False,52,Jillene,Halladay,Cregin,jcregin6s@edublogs.org,5308906830,Quintana Roo,Doe Crossing,Zongozotla,19,38800,RYSW276453ZBQ,27,12757.86,16,2615979005,SAFN581706CTILNKYZ,158,False,False,True,False,False,True,2018-01-12
7752320700,False,True,True,,Berk,Brahan,Olczak,bolczak6t@buzzfeed.com,3717579574,México,Lyons,Alfajayucan,56,41740,GABO857231MAV,,,,,TOCC923061CKZQCLOL,3010,False,False,False,False,False,False,
5273476102,False,False,True,,Jourdain,Danaher,Draycott,jdraycott6u@sfgate.com,9106525014,Sonora,Everett,San Esteban Atatlahuca,74013,97580,CLMQ350094KBD,,,,,,,False,False,False,False,False,False,
5432966591,True,True,False,20,David,Barthel,Thurlbeck,dthurlbeck6v@oakley.com,8860475353,Sinaloa,Transport,San Pedro Cajonos,2219,77370,QGOM137883HKN,34,19476.72,36,9564908216,ZGBJ386239UICDMGHA,1992,False,False,False,False,True,True,2021-09-17
9166327661,False,True,True,,Jo-anne,Clail,Mollindinia,jmollindinia6w@tamu.edu,5823953820,México,Monument,Cadereyta de Montes,1,80580,MJGD998319LIE,,,,,WPDV830397PVQJQYYW,3454,False,False,False,False,False,False,
2793845123,True,False,False,65,Lindsy,Sallings,Cicci,lcicci6x@auda.org.au,1020654939,Queretaro,Haas,Tlaxcoapan,98434,90520,XCMO869056EQG,49,5766.87,18,2694936552,,,False,False,False,False,True,True,2022-04-08
1755641966,True,False,False,30,Merle,Druhan,Cattermull,mcattermull6y@symantec.com,9842124018,Baja California Sur,Doe Crossing,Maguarichi,33,84920,BSJB459796DBO,19,17886.93,6,510260748,,,False,False,False,False,True,False,2018-07-22
5059035924,True,False,False,4,Garvy,Coventon,Cecil,gcecil6z@jimdo.com,9283070609,Queretaro,Northland,Maltrata,984,950,BHWZ192839ZWG,38,10116.42,37,2044284551,,,False,False,False,False,False,True,2019-12-13
8333833967,False,False,True,,Kaleena,Pendre,Strutt,kstrutt70@businesswire.com,2441457931,Puebla,Village,Atizapn,4,8280,FKVM944994UBQ,,,,,,,False,False,False,False,False,False,
9660116645,False,False,True,,Maible,Rosie,Izat,mizat71@unc.edu,1074327804,Chihuahua,Dorton,La Paz,877,8290,UOLX078467PUY,,,,,,,False,False,False,False,False,False,
9885879646,False,True,False,,Perle,Fielders,Windows,pwindows72@yellowpages.com,9082082830,Hidalgo,Jay,Santa Mara Quiegolani,72385,9810,UDJF106974RJR,,,,,CVNT159303ZMSMMQWC,1281,False,False,False,False,False,False,
4584325207,False,True,False,,Shell,Griffith,Ector,sector73@infoseek.co.jp,8391128128,Baja California,2nd,Reynosa,7,62290,AKOT017433PCV,,,,,GPGK339898SDHMOYGF,295,False,False,False,False,False,False,
5041652122,True,False,False,23,Wells,Guiden,Perrat,wperrat74@sourceforge.net,2902847271,México,Tennessee,La Yesca,9,23620,ZPOZ439761EOI,23,35270.23,12,5981419401,,,False,False,False,False,True,False,2022-05-27
6080384331,True,False,False,50,Kerwinn,Dinsmore,Denerley,kdenerley75@icio.us,1694037899,Coahuila de Zaragoza,Jana,Fronteras,9998,39430,UHWB303258PRT,36,22661.94,20,7333620364,,,False,False,False,False,True,True,2020-03-28
1024625709,False,True,True,,Darb,Matzel,Mc Caughen,dmccaughen76@newyorker.com,5723198911,Colima,Kenwood,Tlapacoya,11520,2260,VQXJ496515EFL,,,,,PTNQ695788YTDXSSVV,1019,False,False,False,False,False,False,
9726477224,False,False,True,,Clari,Fittes,Petasch,cpetasch77@merriam-webster.com,398700242,Jalisco,Hayes,Telchac Puerto,8972,200,ZSAO513628XVU,,,,,,,False,False,False,False,False,False,
1887443984,True,True,False,97,Guenevere,Bracknall,Oliveti,goliveti78@japanpost.jp,4924085618,Coahuila de Zaragoza,Steensland,Santa Mara de la Paz,89,3400,VBZL025861KDI,58,40537.63,12,3707020241,OJWN520341DCJEBRYF,4075,False,False,True,False,False,False,2021-09-07
4863897175,True,False,False,74,Reagen,Halburton,Ivory,rivory79@china.com.cn,9998290643,Colima,Mandrake,Ayutla de los Libres,6,49000,CJOV437549NLO,59,33864.32,20,6936782440,,,False,False,False,False,True,True,2021-05-06
1919461831,False,True,True,,Roderich,Feehely,Cardow,rcardow7a@bizjournals.com,8729182806,Morelos,Forster,Ciudad Ixtepec,4,21100,RUGX228097SLK,,,,,NVKL079337WSQUHUDK,4097,False,False,False,False,False,False,
4960946850,True,True,False,19,Blithe,Audenis,Wherrett,bwherrett7b@cnn.com,6103187287,Jalisco,Annamark,Tulum,3799,1460,XMIU259612NUK,57,26794.81,33,481247543,EFIB976360FJBMADAS,198,False,False,True,False,False,True,2019-12-29
4178966481,False,False,True,,Fax,McGee,Luquet,fluquet7c@1und1.de,4934503446,Morelos,Ludington,La Huerta,2502,98130,ADFT295927KZB,,,,,,,False,False,False,False,False,False,
9147665522,True,True,False,60,Currie,Pollett,Doubrava,cdoubrava7d@nps.gov,2847027470,Campeche,Tony,San Cristbal Lachirioag,50,15710,BAQL410705DDC,61,49906.01,20,8409336288,UHZW691755DAWPHYGI,1519,True,False,False,False,False,True,2022-01-20
2555363907,False,False,True,,Harlen,Kleinholz,Purcell,hpurcell7e@exblog.jp,904179488,Michoacán,Carioca,Tequisquiapan,7922,24990,FCSN689622WPT,,,,,,,False,False,False,False,False,False,
7220589655,True,False,False,94,Aurelia,Maas,Francais,afrancais7f@slate.com,2657714580,Durango,Carioca,Zacualpan de Amilpas,64,94630,SAXU804589USU,22,30567.55,29,7288195151,,,False,False,False,False,True,False,2021-09-21
7200919204,True,False,False,61,Bert,Rantoul,Goldsmith,bgoldsmith7g@skype.com,1351745585,Hidalgo,Westend,General Francisco R. Murgua,9060,9390,VTRL152897FVO,19,20341.83,36,8428128149,,,False,False,False,False,False,True,2021-09-04
59055071,False,True,False,,Fiorenze,Chaves,Eliff,feliff7h@slideshare.net,8274852290,Michoacán,Gina,Reforma de Pineda,331,29060,BWIP083943MEY,,,,,FYOS743547PVWOJHXD,4015,False,False,False,False,False,False,
9927443485,True,False,False,44,Giraud,MacIlory,Brahms,gbrahms7i@xing.com,884605753,Zacatecas,Haas,San Pedro Tapanatepec,3329,17070,PHJF359206OZH,36,20059.18,14,1786977331,,,False,True,False,False,False,True,2019-03-23
4051697412,True,False,False,60,Kennie,Lightbown,Vedikhov,kvedikhov7j@furl.net,6065228705,Baja California,Golf View,Anhuac,60,15540,KOPB659231SVT,29,48686.24,25,5316836152,,,False,False,False,True,False,False,2019-11-15
9937506562,True,True,False,3,Salem,Saward,Shanks,sshanks7k@printfriendly.com,2458490938,Queretaro,Shoshone,Santiago Comaltepec,80,59760,KENQ593325HKW,49,6061.13,31,4128435598,CVJL706636TIMIGXEQ,3085,False,False,True,False,False,True,2019-04-07
367730965,True,True,False,72,Hollis,Shepcutt,Dikes,hdikes7l@comcast.net,5437032290,Nuevo Leon,Walton,Villagrn,61,63970,XRQK736526RTL,32,39583.36,10,8096420741,DFYM810107TNGUDTOY,1877,True,False,False,False,False,True,2020-09-10
9262911228,False,False,True,,Karin,Strut,Braganca,kbraganca7m@usatoday.com,1035048300,Morelos,Mosinee,Tenancingo,50,88020,YHVC442654YPB,,,,,,,False,False,False,False,False,False,
7332536809,True,False,False,72,Waldon,Dobsons,Moral,wmoral7n@jimdo.com,6422965478,Baja California Sur,Huxley,Tequila,2,81240,FLKY629192ZEL,31,26506.64,14,2083915571,,,False,False,False,False,False,True,2018-07-07
8893806592,True,False,False,27,Norrie,Reffe,Blencowe,nblencowe7o@google.ru,3836317759,Baja California,West,Tancoco,4152,70760,VRVA315274FDS,61,2268.22,22,9438127859,,,False,False,False,True,False,True,2018-12-18
4466047455,True,True,False,89,Dacie,Jerrand,Medgwick,dmedgwick7p@foxnews.com,3293812024,Colima,Express,San Juan del Ro,91282,19750,IFYP049715GXL,27,9776.39,36,6010384490,HHZV651084NKOUBFOH,1919,False,False,False,False,False,True,2022-03-07
3754345212,True,True,False,59,Lesya,Geeves,Hehl,lhehl7q@omniture.com,5784963990,Chihuahua,Blue Bill Park,Arteaga,8,57640,GDAB372631OKG,42,17518.6,6,4167524294,TENY803562VOFSCMYP,3037,False,True,False,False,False,False,2020-11-29
5663511574,False,False,True,,Ekaterina,Jann,Passie,epassie7r@cdc.gov,8070678927,Guerrero,Loomis,Tlacotalpan,272,90290,TRTS988060XDA,,,,,,,False,False,False,False,False,False,
4678680465,False,False,True,,Vinita,Crolly,Tims,vtims7s@about.me,8824399955,Quintana Roo,Lighthouse Bay,Magdalena Apasco,7,11030,SFSX514980ENY,,,,,,,False,False,False,False,False,False,
4322605480,True,True,False,66,Rivalee,Pellamonuten,Marcombe,rmarcombe7t@japanpost.jp,4986380798,Campeche,Melody,Sanahcat,5794,83400,AUJN251822LQC,34,32088.97,29,2265677998,RWJY048904WIRWMDPF,4336,False,False,False,False,False,True,2019-08-23
8494015849,True,True,False,45,Halie,Pickervance,Poutress,hpoutress7u@amazon.com,2988023686,Guerrero,Orin,Bella Vista,97224,38770,MULR665605FWK,26,21748.03,21,5472753547,NZWT698431UMKGQBCZ,3590,False,False,False,True,False,False,2018-02-08
4675768550,True,True,False,83,Starlene,Scourge,Schimke,sschimke7v@discuz.net,4277392668,Nuevo Leon,Hanson,Tenamaxtln,68,23460,MSMG989435WTK,28,28875.26,6,2915626788,OJKS280289JIJEZFNA,2163,False,False,True,False,False,False,2019-12-17
7445195339,True,True,False,78,Chen,Furnival,Gaisford,cgaisford7w@cpanel.net,2488428466,Hidalgo,Hauk,Ocampo,3,99230,SNBM007733CEH,69,31739.47,9,807159335,OEVT870316MNNURHIR,2001,False,True,False,False,False,True,2019-07-15
5417222255,False,False,True,,Dewie,McClenaghan,Glaister,dglaister7x@marketwatch.com,9064214860,Guerrero,Duke,Frontera Comalapa,68,19820,IQAQ596433PEE,,,,,,,False,False,False,False,False,False,
1181873554,False,True,True,,Yelena,Pressland,Tebbe,ytebbe7y@shutterfly.com,5905892542,Nayarit,Valley Edge,El Oro,3715,18520,DJHG372883QBJ,,,,,WEME291576UYTZAPVR,3623,False,False,False,False,False,False,
1512269663,False,True,True,,Carlye,Helks,Jikylls,cjikylls7z@nymag.com,4700080664,Puebla,Crest Line,San Antonino el Alto,188,47390,FEST007810THL,,,,,SUFD770184SRAXKUEJ,4140,False,False,False,False,False,False,
828926605,False,True,True,,Lorrie,Ivanaev,Arnaudin,larnaudin80@usnews.com,6758568160,Ciudad de México,Golf View,Churintzio,21977,56360,OTCA734181FNE,,,,,JUUD506485LEVCGBWG,4325,False,False,False,False,False,False,
1360039078,False,True,True,,Lorrie,Reddish,Kindle,lkindle81@narod.ru,3373656233,Baja California,Namekagon,Xochimilco,73,82780,MMVD818605MMC,,,,,DRQZ171707JHECZOIC,3479,False,False,False,False,False,False,
4153370542,True,True,False,42,Doralynne,Finnis,Smead,dsmead82@mac.com,4927706188,Yucatan,Grover,Tonal,397,14740,OFHQ210380BEK,64,45611.65,4,2473585393,BVVV468143PVRWIJDS,1051,False,False,False,True,False,False,2021-02-26
5647567179,True,False,False,56,Todd,Lesslie,Bowich,tbowich83@businesswire.com,8480230530,Veracruz de Ignacio de la Llave,Mosinee,Coneto de Comonfort,6010,2760,DOII676823ACW,37,39478.93,38,3317022114,,,False,True,False,False,False,True,2021-11-20
9877760491,False,False,True,,Rachele,Berzins,Cunniff,rcunniff84@theglobeandmail.com,8110410357,Puebla,Buell,Tepechitln,16,57330,ADQI779259DEQ,,,,,,,False,False,False,False,False,False,
4824390409,True,False,False,61,Maurits,Mathes,Ossulton,mossulton85@earthlink.net,9623723259,Veracruz de Ignacio de la Llave,Gulseth,Zapotitln Lagunas,3,14590,MMZF368968FEL,62,8771.43,36,9120441238,,,False,True,False,False,False,True,2021-08-02
6209648644,False,False,True,,Roseanna,Lalonde,McFfaden,rmcffaden86@craigslist.org,4741886624,Coahuila de Zaragoza,Roth,Zoquitln,94997,87560,JDTC303525MNB,,,,,,,False,False,False,False,False,False,
7101829993,True,True,False,38,Genevieve,Odd,Hadenton,ghadenton87@irs.gov,4072418241,Chiapas,Kensington,San Bernardo,1878,42210,RHCK132615FMH,38,48176.89,34,9781996115,TKDD559470TUHKDRUM,4107,False,False,False,False,True,False,2018-06-23
9940256031,True,True,False,24,Celinka,Coupe,Mariaud,cmariaud88@nationalgeographic.com,1134881981,México,Tennyson,San Pedro Teutila,4,6750,AWBL853794UEY,56,30193.89,24,1905017013,NXRU695422RDNDLIJX,3883,False,False,False,False,True,False,2019-05-14
9685599476,True,False,False,50,Stacee,Pesik,Inch,sinch89@springer.com,5022229734,Nayarit,Pennsylvania,Yutanduchi de Guerrero,47,99960,UXEP276002WIF,32,20898.6,17,5160407348,,,False,False,True,False,False,True,2020-02-24
2160057164,False,False,True,,Delmer,Atton,Lillgard,dlillgard8a@so-net.ne.jp,4809084030,Guanajuato,Namekagon,Tuxcueca,733,49970,EMYF729830WSI,,,,,,,False,False,False,False,False,False,
8371040954,False,False,True,,Joelle,Foskett,Olman,jolman8b@webmd.com,5858123253,Queretaro,Trailsway,Abal,9996,66420,QKSQ970949KGK,,,,,,,False,False,False,False,False,False,
