idSucursal,nombreSucursal,rfc,correo,telefono,estado,calle,municipio,nombre,numero,cp
9203485981,Legros-Gerhold,HDLV185058FEX,bmillberg0@webs.com,3176517527,Colima,Bartillon,Villa Purificacin,Blanch,9,75741
9960474397,Schoen-Runolfsson,TTPE238905RRY,waronowicz1@vimeo.com,4943468813,Puebla,Granby,Espaita,Ware,8,18237
7428633337,"Hermiston, Wolff and Strosin",VGYE812839MVU,lgaffon2@a8.net,6399240121,Baja California,Crowley,Huh,Lydon,5264,61659
4597342949,Schuppe-Boehm,XEUI683934TSJ,sskipworth3@plala.or.jp,9458235705,Chiapas,Briar Crest,Tlaltenango de Snchez Romn,Sarina,9343,79688
3199104599,"Ondricka, Cartwright and Feest",KSBW337030FVX,blibero4@blogs.com,7886218705,Queretaro,Ilene,Temamatla,Benedicta,281,98010
1803899569,Harvey-Stamm,WFJL346116HJK,bfarquhar5@census.gov,9612306800,Coahuila de Zaragoza,Ilene,Santa Mara Tepantlali,Brita,36,63425
6308665681,Wyman-Thompson,GQFW249731TQH,lpaladino6@wisc.edu,2175180561,Sonora,Dapin,Pueblo Nuevo,Lambert,57,49383
5661955840,Fay-Fadel,NEGT541956TJM,hbirkmyre7@independent.co.uk,0721213232,Guerrero,Carberry,Abasolo,Holly-anne,94,63712
2174985084,"Schaden, Ferry and Hackett",HOKI491277NGQ,jrivalland8@hugedomains.com,2927021569,Tlaxcala,Rieder,Santos Reyes Tepejillo,Jacky,0,59007
1952282269,Bailey and Sons,FNHU405512GBS,fduham9@quantcast.com,2383923697,Tamaulipas,Kensington,Camarn de Tejeda,Frants,66,18478
4375488867,Bruen and Sons,DXSJ230302OBY,grabbittsa@wufoo.com,3439865629,Baja California,Golf View,San Bartolo Tutotepec,Guendolen,49,50120
4987219328,"Williamson, Ankunding and Fritsch",RLUY797266MGF,nkelshawb@newyorker.com,8242101314,Chihuahua,Mendota,Tarandacuao,Nadya,07643,11828
7402489111,Koss-Runolfsdottir,JUXQ587386EEK,kupcraftc@reddit.com,8851596100,Baja California Sur,Debs,Pitiquito,Kippie,94,19430
6339332282,"Wolf, Monahan and Feeney",JWQH714193UPC,djakuboviczd@weibo.com,1064425269,Chihuahua,Rigney,Zimapn,Demetris,0369,75825
7359904161,Hintz and Sons,BULC259045ZJM,bzammitte@tamu.edu,8716216624,Michoacán,Havey,Talpa de Allende,Bernetta,8122,00640
6682277867,Mann Group,QLQM621051NGA,mbricef@soup.io,3549545349,Coahuila de Zaragoza,Springview,Jurez,Moore,442,19061
2069354300,Dietrich-Franecki,GLKV811672UZJ,egeistg@amazon.com,8597072170,Veracruz de Ignacio de la Llave,Drewry,Zapotitln,Elise,836,22210
6303925116,"Franecki, Reichel and Bailey",VTGZ040260ZRG,vnormabellh@lycos.com,8991862005,Colima,Holmberg,Quiroga,Valdemar,3,02539
6771050060,"Stokes, Hagenes and Feil",RJAB700337FVJ,mcampleni@vkontakte.ru,4570127495,Chiapas,Elka,Citlaltpetl,Meridel,71052,54385
1868638366,Moen-Walker,ZDKR545058YQL,cdaughertyj@51.la,1814371587,Chihuahua,Jay,Santiago Zoochila,Conrad,808,32079
8223794050,O'Kon-Hansen,XMTU720884KZJ,kjedrasikk@usnews.com,7474516038,Sonora,Hovde,Epatln,Kingston,04315,21930
8181560852,"Conroy, Armstrong and Waelchi",YLAK562275AZV,jlewinl@washington.edu,3922172714,Baja California Sur,Gulseth,Tenabo,Johanna,43,51321
2305896180,Dibbert and Sons,VXFX237641EAL,dpattonm@nytimes.com,5648748019,Campeche,Hanson,Atemajac de Brizuela,Delmar,008,46340
8463612421,Schuster and Sons,MQYS192043YAM,gjagielskin@shinystat.com,0787303553,Coahuila de Zaragoza,Westport,Huiloapan de Cuauhtmoc,Giacomo,5,80401
9480983189,"Cassin, Lowe and Kuhn",GGEJ561048QKV,bwhewillo@nps.gov,1498704226,Guerrero,Independence,Mecayapan,Brigg,98516,80759
0024300376,Haag LLC,BSPO932233NSL,kcalderp@dagondesign.com,1349574148,Oaxaca,Golden Leaf,Amatln de los Reyes,Kissiah,15208,90483
4116890464,"Lemke, Wunsch and Dare",KOMR613402VNW,sleveretteq@liveinternet.ru,9371815617,Tlaxcala,Fair Oaks,Zinacatepec,Say,04280,88938
2919347771,Baumbach Group,CWYX670874VGZ,ehortr@ca.gov,3819440738,Campeche,Kingsford,Coatepec Harinas,Eloisa,5,79694
5258258542,"Legros, Howell and Larkin",CQTL457159LDK,lnairnes@earthlink.net,6326009892,Michoacán,Brentwood,San Jos Independencia,Laurette,0691,44895
9276691110,Bahringer-Denesik,JGTY338095ALX,mlowlet@loc.gov,7504103527,Chihuahua,Loeprich,Tasquillo,Mariquilla,71955,68233
7081447580,McCullough-Feil,AOUO725912AOZ,jpawlynu@businessweek.com,3043025228,Campeche,Charing Cross,Tlacotepec de Meja,Jackelyn,535,77745
9083676154,"Boyer, Kertzmann and Hahn",WKLH106065CAB,pmerridayv@ucoz.com,2566140784,Guanajuato,Westend,Santa Mara la Asuncin,Phillipp,72521,06267
1315456437,"O'Connell, Mitchell and Bode",DFBR330233DPC,jsitlingtonw@nbcnews.com,6670820459,Oaxaca,Dayton,San Miguel Achiutla,Joell,0506,58356
0636311349,"Flatley, Purdy and Gottlieb",OYLM497963UOF,kbirdfieldx@usgs.gov,8560974175,Yucatan,Holmberg,Matlapa,Kamillah,6161,03845
2959602672,Weimann LLC,CBXY291601AGZ,wbridgwoody@ibm.com,7615865844,Zacatecas,Darwin,Huazalingo,Wainwright,917,55105
3105812752,Boehm Group,TUBZ954315JMO,rmottoz@amazon.co.uk,9389526017,San Luis Potosi,Burrows,Ahuehuetitla,Rodolphe,15976,81463
5611059489,Robel-Koss,NECN940082ZDC,pdriffe10@stumbleupon.com,0613781898,Coahuila de Zaragoza,Florence,Camerino Z. Mendoza,Padraic,16363,69081
8118087672,Hessel Inc,MGHU800308BSZ,lruppel11@gizmodo.com,6393201123,Campeche,Boyd,Ixcaquixtla,Leanor,481,57362
8849157252,"Wiegand, Schimmel and Crooks",PKGN708170LFD,irykert12@bloglines.com,9192383254,Colima,Cambridge,La Trinidad Vista Hermosa,Ivan,0,32265
6326568218,Wolff LLC,SNAV077561XHQ,iextance13@amazonaws.com,5778913704,Coahuila de Zaragoza,Alpine,Kinchil,Idelle,366,75551
5001027211,White Inc,DQVZ828747EEN,jgallatly14@bloomberg.com,5798235637,Puebla,Jana,Zempoala,Jeddy,5880,88120
1190223745,"Tromp, Hettinger and Cassin",EQLQ484345XOI,cokelleher15@google.pl,0589792549,Nayarit,Lake View,Hocab,Colene,66,11856
9902649605,"Durgan, Legros and Roberts",DFID687858QUR,cdunphy16@dot.gov,4959458033,Baja California,Harbort,Cuyamecalco Villa de Zaragoza,Cordi,10881,44850
2765879482,"Reinger, Lang and Jacobi",NEMX983544OEY,enaptine17@sohu.com,5857457403,Aguascalientes,Coleman,San Pablo Yaganiza,Elfrieda,24619,45891
2222748404,"Huels, Ruecker and Kiehn",KHGZ156160HVY,rtzarkov18@smugmug.com,8763130191,Yucatan,Dunning,San Jos Tenango,Rozalin,74,07808
2400100018,Stamm LLC,DACA683554NXM,mdeakes19@sun.com,3975446788,Aguascalientes,Debs,Aguililla,Marlie,756,52878
9974218067,"Abshire, Romaguera and Kuhic",GDFI728957OMF,baymeric1a@vk.com,3599995852,Nayarit,Eastwood,Benito Jurez,Brannon,4065,02867
5598754744,"Batz, Dibbert and Nolan",EBNI350301GHE,hludlow1b@skyrock.com,3743057033,Hidalgo,Ridgeview,Huautla de Jimnez,Heidi,7,56988
2674166748,Schaden-Schmeler,QGQM385002AKX,gfraanchyonok1c@apache.org,8503381672,Puebla,Burning Wood,Malinaltepec,Godiva,22,26807
6210563128,Bashirian Group,INRZ391737EIK,okeson1d@wunderground.com,2714710392,Ciudad de México,Southridge,Acatzingo,Onida,8,07113
4684867942,"Torphy, Bayer and Conroy",UKOV743504POM,hpenton1e@google.pl,3480511978,Baja California Sur,Canary,Santa Mara Yalina,Hildagarde,98647,18795
5793279574,Lubowitz LLC,AGBT968596WSE,rstaneland1f@wufoo.com,1288954737,México,Dapin,Chanal,Raf,90772,00061
5795416030,Bailey LLC,OHDV651939ZMU,sarnholz1g@patch.com,1395804256,Chiapas,Novick,San Andrs Huaxpaltepec,Sigismundo,11553,37150
5637306674,"Lynch, Crist and Mante",YWGY546412ZEU,bstronach1h@google.it,8272568360,México,Goodland,Heroica Ciudad de Tlaxiaco,Beverlie,20,08883
6286302982,Oberbrunner-Stamm,ZOFQ748832EJT,tdisney1i@about.me,3497365640,Colima,Linden,Santa Mara Teopoxco,Thaxter,86,19063
7605787246,Huel Inc,NCJY570924YTV,tdawidman1j@istockphoto.com,2097614694,Tabasco,Elgar,Ostuacn,Thomasin,54768,12636
7462592733,Kuvalis-Mayer,TTBD906941TZV,mfink1k@aol.com,0102865578,Sinaloa,Dryden,Tlapehuala,Morly,03,48556
9639618522,"Hoppe, Champlin and Conroy",GEVF799065AWR,ksimmonett1l@ucsd.edu,6519059841,Michoacán,Armistice,San Pablo Villa de Mitla,Karol,6,57303
6170216489,"Weber, Renner and Cruickshank",QUWB891990KSF,cabrahamowitcz1m@vinaora.com,3535417471,Aguascalientes,Farwell,Santo Domingo Tehuantepec,Christophorus,73,63392
3247416465,Okuneva-Cormier,AKNF525769KYP,hsizland1n@baidu.com,9151118932,Guerrero,Waywood,Ixtapangajoya,Hildy,4,32797
6601097409,Funk LLC,ZAVW250963BQB,jivantsov1o@1688.com,1691786338,Puebla,Bobwhite,Mrida,Joyous,62669,86782
2893177572,Russel-Pouros,JAPD703660ROD,afulbrook1p@github.io,5218249756,Baja California Sur,Bellgrove,Tocatln,Ameline,70290,06544
3099686809,O'Hara-Walker,RFYM492375ECC,cbrookesbie1q@disqus.com,1158401810,Campeche,Cherokee,San Juan Lalana,Christal,77873,00119
6229345492,Reichert and Sons,ZWOW313691HEZ,ebenford1r@privacy.gov.au,7339154075,Sinaloa,Buell,Husabas,Eliot,27706,81494
1043762245,Haley-Roob,CISP265374UVE,erunnacles1s@soup.io,6316284640,Puebla,Sauthoff,Naranjal,Ethelda,459,85479
7599290315,"Kohler, Pagac and Gleichner",EPYB079678XPZ,bfolliott1t@about.com,3917515438,Aguascalientes,Lerdahl,Dolores Hidalgo Cuna de la Independencia Nacional,Buddy,02374,61131
3856309904,"Klein, Hackett and Schulist",ZVDH475953DMR,mwarden1u@ucsd.edu,5435018918,Sonora,Loftsgordon,Tamiahua,Maighdiln,2049,65290
9218200143,Windler Inc,BDPO863399TTS,cmcniven1v@hostgator.com,5804832211,Coahuila de Zaragoza,Daystar,Santa Mara Ipalapa,Carol-jean,873,78580
9871349695,"Hintz, McCullough and Collier",KEHL129874LXD,gwindrass1w@odnoklassniki.ru,4345595430,Coahuila de Zaragoza,Stoughton,Rosario,Giulio,6927,96151
4666864794,"Pfannerstill, Dicki and Yost",EWHO018454ANH,ydevenish1x@vistaprint.com,0075984468,Nuevo Leon,Jana,Coetzala,Yankee,23026,31641
8563949760,Kris-O'Kon,SJZD815806HDB,ciddon1y@nationalgeographic.com,2148790544,Chiapas,Spohn,Tekal de Venegas,Carolyn,81399,90358
7701967500,Schimmel and Sons,KCMR149163XBI,dshoppee1z@technorati.com,1974010466,Tlaxcala,Rigney,San Fernando,Dagmar,17,11626
5592617903,Runte Inc,ADKR198327HSM,edrinkel20@microsoft.com,2175888176,Chiapas,North,Galeana,Elliot,126,04708
0482957497,"Terry, Buckridge and Buckridge",KMXV903639QIN,bjeger21@de.vu,7386852762,Tamaulipas,Warner,Apetatitln de Antonio Carvajal,Borg,574,14272
0969009840,Shanahan-Witting,RRCO650436HVM,ohappert22@macromedia.com,9179118091,Nayarit,Stone Corner,Paracho,Ola,8513,71627
6408506977,"Swaniawski, Brakus and Marquardt",DJOG638596DYF,jmctrusty23@latimes.com,3448698193,Michoacán,Gale,Atitalaquia,Jorie,5371,35366
9503653923,"Bernhard, MacGyver and Boyer",VWFH449954ZVG,jmanser24@reference.com,8389373977,Aguascalientes,Meadow Ridge,San Miguel del Ro,Jarvis,0,03948
8546414468,Kuvalis Group,YTDI045296GAU,lossipenko25@edublogs.org,0675624501,Campeche,Washington,Ocampo,Lisha,765,62964
3575150287,Ratke-Nader,SWYS013315PKA,sgatteridge26@home.pl,5843339778,Zacatecas,Anniversary,Nombre de Dios,Sutherlan,7,40738
3175234074,Bartoletti-Kiehn,LQOP319492FMM,kottley27@jigsy.com,7979224411,Tlaxcala,Merchant,Susupuato,Krystal,3202,09136
0500968903,Nicolas and Sons,JLXU193453FEP,fapted28@yolasite.com,5433897548,Tabasco,Marquette,Abal,Frankie,04,63453
5911343403,Greenfelder LLC,OXLM917014VTL,grotter29@live.com,2989850682,Campeche,Grayhawk,Carrillo Puerto,Guilbert,15,68682
4950613753,"Hodkiewicz, Beier and Gusikowski",LYVY078823ZQF,oboulger2a@bigcartel.com,3930322763,Zacatecas,Kim,San Miguel Tlacotepec,Ozzy,8,66672
7739948965,"Fadel, Herzog and Hyatt",LJAV531055GRK,igyurkovics2b@toplist.cz,3580645855,Jalisco,Hoard,Zentla,Ivar,47,67477
9391336410,Considine-Ledner,XBHX790874HPO,rlavarack2c@youku.com,4015558899,Guerrero,Sunfield,San Miguel Xoxtla,Rosco,519,64061
2914774066,Beer Inc,FRBW454712WCQ,aratie2d@t-online.de,0839746429,Sinaloa,Everett,Santa Mara del Oro,Arel,04,84615
2910224639,Armstrong Inc,DAPT964826ZXU,wcourtman2e@163.com,0842668211,Baja California Sur,Everett,Yecapixtla,Wendye,7,89733
3693227322,"Jacobson, Upton and Upton",LRJE171194OWE,norehead2f@mapquest.com,8200867508,Chiapas,Manley,San Miguel Tulancingo,Norene,6700,02299
1993519567,"Kihn, Bergstrom and Deckow",SRVR508255JPR,udrinkale2g@behance.net,2623503635,Morelos,Milwaukee,La Independencia,Umberto,921,66554
3628296783,Rowe Group,ZCHG640214HLY,knorthen2h@yellowpages.com,7837446836,Durango,Eggendart,Tequila,Karlie,55,87271
5324731932,Stanton Inc,HNDY716825SMF,bdumbreck2i@elpais.com,0602985191,Queretaro,Ohio,Villa Guerrero,Brianna,2755,00780
3340417935,Mayert LLC,OSRP309115PDE,bmugridge2j@google.ca,4341347388,Ciudad de México,Welch,Angel R. Cabada,Bertine,65,69255
3170212556,"Grady, Langosh and Purdy",BSWW778840CHT,rkleinzweig2k@msn.com,0623660171,Veracruz de Ignacio de la Llave,Sunfield,Cansahcab,Rafael,6,56477
1985044157,Lindgren-Dickinson,UPIE731152TPW,xlaity2l@naver.com,8320258276,Tlaxcala,4th,Quitupan,Xenia,31638,47476
8327009076,Fritsch Inc,ACRO195028YAJ,jzienkiewicz2m@omniture.com,7481541472,Puebla,Fallview,Nicols Romero,Jimmy,22003,56922
6936678912,Cruickshank-Fay,VQVK385353XYF,ltolliday2n@shareasale.com,1796851118,Michoacán,Bonner,Chiautempan,Lexy,307,03702
3475538002,Cassin-Jast,ZWID592750VUI,cbodsworth2o@homestead.com,6700286839,Hidalgo,Farragut,Uayma,Camille,74867,99328
5931015174,Trantow-Cormier,CXKZ731097YXX,nspaight2p@seattletimes.com,5079804962,Morelos,Blackbird,Apatzingn,Nessi,51,17264
2130779876,"Waters, Reichert and Hahn",IQPB222014RYG,gcaroli2q@edublogs.org,7567116878,Ciudad de México,Eggendart,Santo Domingo de Morelos,Gabbie,282,73492
6300724362,Bahringer and Sons,ALDT784104VUH,helstow2r@ucsd.edu,8386226324,Puebla,Southridge,Manlio Fabio Altamirano,Halley,263,83860
